"id","title","lng","lat","province","city","area"
"20","绿石环境行动网络","118.781","32.044","江苏","南京市","建邺区"
"23","百蝶缘生态发展中心","118.782","31.9921","江苏","南京市","雨花台区"
"24","青环志愿者服务中心","118.851","32.0093","江苏","南京市","白下区"
"25","江苏绿色之友","118.827","32.0811","江苏","南京市","玄武区"
"26","昆山市鹿城环保志愿者","120.902","31.3922","江苏","苏州市","昆山市"
"27","上海道融自然保护与可持续发展中心","121.367","31.1132","上海","上海市","闵行区(浦江镇)"
"29","南京晓庄学院自然之友","118.906","31.8945","江苏","南京市","江宁区"
"31","莫愁湖环保协会","118.772","32.0379","江苏","南京市","建邺区"
"32","河海大学绿帆环保协会","118.793","31.9175","江苏","南京市","江宁区"
"33","东南大学绿带环保协会","118.818","31.8925","江苏","南京市","江宁区"
"34","南京林业大学牧青社","118.82","32.0833","江苏","南京市","玄武区"
"41","磐石环境与能源研究所","116.56","40.1181","北京","北京市","顺义区"
"43","绿色和平","116.436","39.9399","北京","北京市","东城区"
"44","天津绿色之友","117.162","39.111","天津","天津市","南开区"
"45","自然之友","116.39","39.9793","北京","北京市","朝阳区"
"48","自然大学","116.397","39.9855","北京","北京市","朝阳区"
"49","大学生绿色营","116.316","39.9977","北京","北京市","海淀区"
"58","WWF","116.408","39.918","北京","北京市","东城区"
"59","绿满江淮","117.243","31.8391","安徽","合肥市","蜀山区"
"61","天下溪","116.422","40.0687","北京","北京市","昌平区"
"66","绿色龙江","126.563","45.8123","黑龙江","哈尔滨市","松北区"
"67","珲春天和东北虎保护协会","130.356","42.8691","吉林","延边州","珲春市"
"68","通榆环保志愿者协会","122.137","45.0286","吉林","白城市","通榆县"
"69","黑嘴鸥保护协会","122.069","41.1267","辽宁","盘锦市","兴隆台区"
"70","蔚然大连","121.565","38.9792","辽宁","大连市","甘井子区"
"73","绿家园（北京）","116.429","39.9536","北京","北京市","东城区"
"75","北京地球村","116.391","39.9796","北京","北京市","朝阳区"
"77","山水自然保护中心","116.316","39.9977","北京","北京市","海淀区"
"79","公众环境研究中心","116.445","39.9153","北京","北京市","朝阳区"
"81","CYCAN","116.463","39.9982","北京","北京市","朝阳区"
"86","芜湖生态中心","118.394","31.318","安徽","芜湖市","弋江区"
"87","绿色江南","120.787","31.3511","江苏","苏州市","工业园区"
"89","上海绿洲","121.527","31.2197","上海","上海市","浦东新区"
"94","绿芽","112.569","37.8776","山西","太原市","迎泽区"
"96","阿拉善生态保护协会","116.49","39.9399","北京","北京市","朝阳区"
"100","皖青","118.387","31.2919","安徽","芜湖市","弋江区"
"101","爱芬环保","121.471","31.2678","上海","上海市","闸北区"
"102","上海仁渡","121.528","31.2197","上海","上海市","浦东新区"
"103","绿眼睛","120.704","27.9245","浙江","温州市","鹿城区"
"106","污染受害者法律帮助中心","116.358","39.9715","北京","北京市","海淀区"
"107","绿色吉林","125.259","43.8274","吉林","长春市","高新区"
"108","大连槐盟","121.535","38.9586","辽宁","大连市","甘井子区"
"111","晋青","112.572","37.9024","山西","太原市","杏花岭区"
"114","上海自然之友","121.366","31.1131","上海","上海市","闵行区(浦江镇)"
"118","上海野鸟会","121.492","31.227","上海","上海市","黄浦区"
"119","绿色北疆","119.755","49.217","内蒙古","呼伦贝尔市","海拉尔区"
"120","绿色盘锦","122.073","41.1239","辽宁","盘锦市","兴隆台区"
"124","大连野保","121.624","38.9218","辽宁","大连市","西岗区"
"125","绿色大学生论坛","116.42","40.0911","北京","北京市","昌平区"
"127","GEI","116.423","39.9018","北京","北京市","东城区"
"129","绿色太行","113.386","37.0886","山西","晋中市","左权县"
"133","IED","116.42","39.9234","北京","北京市","东城区"
"134","达尔问自然求知社","116.423","40.0069","北京","北京市","朝阳区"
"135","北京绿十字","116.431","39.9667","北京","北京市","东城区"
"136","杭州生态文化协会","120.174","30.3032","浙江","杭州市","下城区"
"137","杭州艾绿","120.137","30.2667","浙江","杭州市","西湖区"
"138","野性中国","116.348","39.9445","北京","北京市","西城区"
"139","绿色水网","120.707","28.0122","浙江","温州市","鹿城区"
"140","沧州野生动物救护中心","116.79","38.2921","河北","沧州市","运河区"
"155","中华女子学院绿色心愿环保协会","116.442","40.0006","北京","北京市","朝阳区"
"161","美国大自然保护协会","116.451","39.9153","北京","北京市","朝阳区"
"162","国际河流","116.413","39.9353","北京","北京市","东城区"
"168","国际野生生物保护学会","116.428","40.0061","北京","北京市","朝阳区"
"169","NRDC","116.473","39.9292","北京","北京市","朝阳区"
"170","保护国际","116.465","39.9384","北京","北京市","朝阳区"
"171","妇女与环境小组","116.415","39.9118","北京","北京市","东城区"
"172","北京观鸟会","116.476","39.9243","北京","北京市","朝阳区"
"174","万通公益基金会","116.464","39.9253","北京","北京市","朝阳区"
"175","SEE基金会","116.485","39.9383","北京","北京市","朝阳区"
"177","北林山诺会","116.353","40.0084","北京","北京市","海淀区"
"178","北京林业大学绿手指","116.351","40.0076","北京","北京市","海淀区"
"191","绿色雁翎","115.512","38.8722","河北","保定市","定兴县"
"192","北京猛禽救助中心","116.375","39.9712","北京","北京市","海淀区"
"193","环友科技","116.416","40.0154","北京","北京市","朝阳区"
"194","大海环保公社","116.405","39.9156","北京","北京市","东城区"
"195","曾经草原","116.402","39.9147","北京","北京市","东城区"
"196","瀚海沙","116.344","40.0982","北京","北京市","昌平区"
"197","北京水源保护基金会","116.85","40.3821","北京","北京市","密云县"
"198","橄榄绿环境文化传播中心","114.509","38.034","河北","石家庄市","桥西区"
"199","衡水市地球女儿环保志愿者协会","115.678","37.7452","河北","衡水市","桃城区"
"200","安徽绿色大学生论坛","117.265","31.8667","安徽","合肥市","肥西县"
"203","扬州大学绿行社","119.425","32.3856","江苏","扬州市","开发区"
"204","北交大绿色之家","116.349","39.9573","北京","北京市","海淀区"
"205","南开大学绿行","117.177","39.1093","天津","天津市","南开区"
"208","北工大自然爱好者","116.488","39.8838","北京","北京市","朝阳区"
"209","北化绿色生命","116.428","39.9777","北京","北京市","朝阳区"
"210","东北师范大学绿色动力环保协会","125.331","43.8543","吉林","长春市","朝阳区"
"211","吉林建筑工程学院环保青年社","125.414","43.8017","吉林","长春市","朝阳区"
"212","延大绿联","129.499","42.9168","吉林","延边州","延吉市"
"213","东北林业大学绿色使者志愿者协会","126.645","45.7266","黑龙江","哈尔滨市","香坊区"
"214","哈尔滨商业大学绿协","126.571","45.8245","黑龙江","哈尔滨市","松北区"
"215","八一农垦大学绿谷之星环保协会","125.175","46.5933","黑龙江","大庆市","龙凤区"
"217","中国药科大学百里纷兰环保协会","118.925","31.902","江苏","南京市","江宁区"
"218","浙江大学学生绿之源协会","120.147","30.2787","浙江","杭州市","西湖区"
"219","中科大NPA","117.275","31.843","安徽","合肥市","蜀山区"
"225","河北电视台绿家园","114.471","38.0408","河北","石家庄市","桥西区"
"235","河北绿色知音","114.505","38.1359","河北","石家庄市","新华区"
"236","地球卫士","113.296","40.108","山西","大同市","城区"
"237","上海根与芽","121.488","31.2368","上海","上海市","黄浦区"
"238","江苏南京紫金山环保志愿大队","118.799","32.0347","江苏","南京市","白下区"
"239","无锡市地球卫士环境文化促进会","120.32","31.5844","江苏","无锡市","南长区"
"240","台州市环保志愿者协会","121.287","28.6572","浙江","台州市","黄岩区"
"242","伯尔基金会","116.445","39.9389","北京","北京市","东城区"
"246","清水同盟 ","116.441","39.9684","北京","北京市","朝阳区"
"247","CNature ","116.499","39.9936","北京","北京市","朝阳区"
"248","IFCE","116.384","39.9998","北京","北京市","朝阳区"
"249","蓝月亮基金","116.425","39.9364","北京","北京市","东城区"
"251","美国环保协会中国项目办公室","116.427","39.9547","北京","北京市","东城区"
"252","美国野生救援协会","116.451","39.9153","北京","北京市","朝阳区"
"253","湿地国际-中国办事处","116.397","39.9752","北京","北京市","西城区"
"254","太平洋环境组织","116.395","39.9165","北京","北京市","东城区"
"255","铁匠学院","116.449","39.9424","北京","北京市","东城区"
"256","中外对话","116.315","39.9868","北京","北京市","海淀区"
"257","森林管理委员会中国","116.438","39.9262","北京","北京市","东城区"
"258","气候组织","116.44","39.9661","北京","北京市","朝阳区"
"259","能源基金会北京办事处","116.448","39.9149","北京","北京市","朝阳区"
"270","金华绿色之友","119.659","29.1245","浙江","金华市","婺城区"
"274","大连市环保志愿者协会","121.602","38.8923","辽宁","大连市","沙河口区"
"275","永嘉县绿色环保志愿者协会","120.703","28.1631","浙江","温州市","永嘉县"
"277","生态和平亚洲","116.355","40.0395","北京","北京市","海淀区"
"278","内蒙古巴彦淖尔市乌拉特前旗博雅文化协会","108.658","40.7379","内蒙古","巴彦淖尔市","乌拉特前旗"
"279","富群环境研究院","116.393","39.9834","北京","北京市","朝阳区"
"282","上海鸟哨 ","121.642","31.5826","上海","上海市","崇明县"
"283","吴江蓝天环保协会 ","120.649","31.1477","江苏","苏州市","吴江市"
"285","山西省青少年生态环保社团联盟 ","112.583","37.9019","山西","太原市","杏花岭区"
"294","爱思创新 ","116.341","39.98","北京","北京市","海淀区"
"295","绿色三山 ","119.454","32.2116","江苏","镇江市","京口区"
"300","江苏野鸟会 ","119.42","32.4","江苏","扬州市","开发区"
"305","哈工大绿协","126.639","45.7536","黑龙江","哈尔滨市","南岗区"
"307","内蒙古大学绿色先锋 ","111.706","40.8208","内蒙古","呼和浩特市","赛罕区"
"309","河北师大绿色方舟 ","114.534","38.0477","河北","石家庄市","长安区"
"311","乐亭野生动物保护协会","118.952","39.3669","河北","唐山市","乐亭县"
"313","绿唐高校环保联盟","118.173","39.6822","河北","唐山市","路北区"
"316","牡丹江环保践行社","129.569","44.5963","黑龙江","牡丹江市","爱民区"
"318","黑豹野生动物保护站","115.601","39.6386","北京","北京市","房山区"
"322","魔法猫ECO手工坊 ","116.355","39.9481","北京","北京市","西城区"
"324","北京三生环境与发展研究所","116.322","39.9936","北京","北京市","海淀区"
"325","影像生物多样性调查所","116.415","40.0535","北京","北京市","朝阳区"
"326","合肥善水","117.297","31.8658","安徽","合肥市","庐阳区"
"330","河北大学绿色生命环境发展协会","115.524","38.8791","河北","保定市","北市区"
"333","常州高校环保联盟","119.982","31.8141","江苏","常州市","钟楼区"
"336","青年环境评论 ","116.44","39.9277","北京","北京市","东城区"
"337","燕山学堂 ","116.853","40.6099","北京","北京市","密云县"
"338","SWNE自然教育工作室 ","121.542","31.2778","上海","上海市","杨浦区"
"430","山西大学环境保护协会","112.593","37.8104","山西","太原市","迎泽区"
"431","山大工程地球村环保协会","112.603","37.8739","山西","太原市","迎泽区"
"432","山西大学商务学院绿色家园","112.669","37.7486","山西","太原市","小店区"
"433","太原理工大学绿协","112.53","37.8642","山西","太原市","万柏林区"
"454","山西大学青年志愿者服务中心协会","112.594","37.8077","山西","太原市","迎泽区"
"473","太原理工大学环保协会","112.527","37.8677","山西","太原市","万柏林区"
"474","太原科技大学环保志愿者协会","112.498","37.8834","山西","太原市","万柏林区"
"475","太原科技大学绿色环保协会","112.498","37.8834","山西","太原市","万柏林区"
"476","太原科技大学绿色营","112.498","37.8834","山西","太原市","万柏林区"
"477","太原科技大学华科学院人与自然协会","112.516","37.8034","山西","太原市","万柏林区"
"526","长春大学绿色燎原环保协会","125.328","43.8387","吉林","长春市","南关区"
"527","长春大学团锋绿色行动志愿者协会","125.328","43.8402","吉林","长春市","朝阳区"
"529","长春工业大学环保志愿者协会","125.296","43.8605","吉林","长春市","朝阳区"
"530","长春工业大学绿盟协会","125.296","43.8605","吉林","长春市","朝阳区"
"532","长春理工大学青照公益协会","125.32","43.8432","吉林","长春市","朝阳区"
"533","长春理工大学东校区“绿光”环保协会","125.32","43.8432","吉林","长春市","朝阳区"
"534","长春理工大学光电环协","125.32","43.8432","吉林","长春市","高新区"
"535","长春税务学院绿色同盟","125.438","43.8256","吉林","长春市","净月区"
"536","东北师范大学心灵使者","125.337","43.8672","吉林","长春市","南关区"
"537","东北师范大学天地人环保志愿者协会","125.434","43.8325","吉林","长春市","净月区"
"538","吉大环协","125.287","43.8291","吉林","长春市","高新区"
"539","吉林大学龙江使者","125.342","43.8626","吉林","长春市","朝阳区"
"540","吉林大学绿野协会","125.314","43.8839","吉林","长春市","朝阳区"
"541","吉林大学南校环协","125.287","43.8291","吉林","长春市","高新区"
"543","吉林大学南岭校区环协","125.342","43.8626","吉林","长春市","南关区"
"544","吉林农业大学发展学院“绿色之风”环保协会","125.673","43.5441","吉林","长春市","双阳区"
"545","吉林农业大学绿色守望者环境保护协会","125.418","43.817","吉林","长春市","南关区"
"546","吉林农业大学绿野青年志愿者协会","125.418","43.817","吉林","长春市","南关区"
"547","吉林大学南湖校区绿色之声环协","125.3","43.8553","吉林","长春市","经开区"
"548","北华大学青年志愿者协会","126.608","43.8421","吉林","吉林市","丰满区"
"549","北华大学绿之恋环境保护协会","126.609","43.841","吉林","吉林市","丰满区"
"550","吉林化工学院环境保护协会","126.625","43.9065","吉林","吉林市","龙潭区"
"551","吉林化工学院青年志愿者协会","126.625","43.9065","吉林","吉林市","龙潭区"
"552","锦州医学院成人教育学院环保社团","121.111","41.0945","辽宁","锦州市","太和区"
"553","保定金融高等专科学校绿色阳光环保协会","115.51","38.8736","河北","保定市","北市区"
"554","保定学院绿色家园协会","115.455","38.833","河北","保定市","新市区"
"555","河北民族师范学院纯净水环保社团","117.965","40.9019","河北","承德市","双桥区"
"556","邯郸职业技术学院环境研究保护协会","114.519","36.5908","河北","邯郸市","邯山区"
"557","邯郸职业技术学院化学系环研协会","114.516","36.583","河北","邯郸市","邯山区"
"558","河北北方学院大学生六五环保社","114.885","40.7734","河北","张家口市","桥西区"
"559","河北大学绿协","115.524","38.8791","河北","保定市","北市区"
"560","河北工程学院医学部环保志愿者协会","114.509","36.625","河北","邯郸市","邯山区"
"561","河北工程学院资源学院环协","114.506","36.5767","河北","邯郸市","邯山区"
"562","河北工程学院大学生环保协会","114.505","36.5819","河北","邯郸市","邯山区"
"563","河北工院绿色之友协会","114.466","38.0228","河北","石家庄市","桥西区"
"564","河北化工医药职业技术学院青年环保协会","114.611","37.9958","河北","石家庄市","裕华区"
"565","河北工程大学土木院大学生环保协会","114.508","36.578","河北","邯郸市","邯山区"
"566","河北经贸大学自然之子希望公益协会","114.502","38.1414","河北","石家庄市","新华区"
"567","河科大野生动物保护协会","114.522","38.0393","河北","石家庄市","桥东区"
"568","河北科技大学根与芽协会","114.521","38.0414","河北","石家庄市","裕华区"
"569","河北理工大学环保协会","118.169","39.6301","河北","唐山市","路南区"
"570","河北师大绿色方舟环保协会","114.528","38.002","河北","石家庄市","裕华区"
"571","衡水学院浪漫樱花环保协会","115.669","37.7501","河北","衡水市","桃城区"
"572","衡水学院城乡科技社","115.669","37.7501","河北","衡水市","桃城区"
"573","华北电力大学环协","116.314","40.0975","北京","北京市","昌平区"
"574","廊坊师范学院绿之生环保协会","116.679","39.5321","河北","廊坊市","安次区"
"575","石家庄铁路工程职业技术学院环保社团","114.533","38.0943","河北","石家庄市","桥东区"
"576","石家庄职业技术学院蓝天社","114.413","38.0532","河北","石家庄市","桥西区"
"577","石家庄职业技术学院环保社团","114.415","38.0515","河北","石家庄市","桥西区"
"578","唐山工业职业技术学院环协","118.219","39.6684","河北","唐山市","路北区"
"579","唐山学院环保志愿者协会","118.177","39.664","河北","唐山市","路北区"
"580","邢台学院绿色之友环保协会","114.512","37.0968","河北","邢台市","桥东区"
"581","邢台医专绿色明天环保协会","114.468","37.0951","河北","邢台市","桥西区"
"582","燕大环协","119.545","39.9102","河北","秦皇岛市","海港区"
"583","燕山大学根与芽社团","119.545","39.9102","河北","秦皇岛市","海港区"
"584","燕山大学里仁学院环保协会","119.534","39.9124","河北","秦皇岛市","海港区"
"585","张家口教育学院地理系FRED环保协会","114.878","40.8491","河北","张家口市","桥西区"
"586"," 河北建筑工程学院大学生环保社团	","114.904","40.8318","河北","张家口市","桥西区"
"587","河北医科大学绿色行程","114.542","38.0513","河北","石家庄市","长安区"
"588","石家庄经济学院“绿色再现”","114.555","38.0259","河北","石家庄市","裕华区"
"589","河北农业大学蓝色天使社团","115.49","38.8563","河北","保定市","南市区"
"590","河北农业大学环保——我们的梦","115.49","38.8563","河北","保定市","南市区"
"591","保定学院校爱心社	","115.931","39.4793","河北","保定市","新市区"
"592","北京青年政治学院廊坊分院青年志愿者服务社","116.762","39.5949","河北","廊坊市","安次区"
"593","定兴三中绿色环保志愿者联合会","115.818","39.2711","河北","保定市","定兴县"
"594","河北工程学院从台校区绿韵环保协会","114.508","36.6244","河北","邯郸市","丛台区"
"595","河北工程学院中华南校区环保志愿者协会","114.499","36.5947","河北","邯郸市","邯山区"
"596","河北工业大学爱心环保协会","117.068","39.2395","天津","天津市","红桥区"
"597","河北工业大学城市学院绿鹰环保组织","117.173","39.1845","天津","天津市","红桥区"
"598","唐山师范学院滦州分校青协","118.766","39.7431","河北","唐山市","滦县"
"599","河北科技师范学院绿色守护者","119.562","39.9183","河北","秦皇岛市","北戴河区"
"616","山西财经大学环保协会“绿色家园”","112.597","37.7979","山西","太原市","迎泽区"
"617","山西财经大学长青社","112.597","37.7979","山西","太原市","迎泽区"
"618","大连海事大学环发协会","121.539","38.8776","辽宁","大连市","甘井子区"
"619","鞍山师范学院环协","123.001","41.0833","辽宁","鞍山市","铁东区"
"620","山西财政税务专科学校环保协会","112.524","37.8587","山西","太原市","万柏林区"
"621","山西财经大学华商学院绿芽环保协会","112.587","37.7759","山西","太原市","小店区"
"622","山西省中医学院环保志愿者协会","112.537","37.8478","山西","太原市","万柏林区"
"623","山西经济干部管理学院爱心环保协会","112.538","37.8053","山西","太原市","万柏林区"
"624","山西经济干部管理学院绿色卫队","112.545","37.8493","山西","太原市","万柏林区"
"625","山西经济干部管理学院环保志愿者协会","112.535","37.8453","山西","太原市","万柏林区"
"626","中北大学环境保护协会","112.44","38.0296","山西","太原市","尖草坪区"
"627","中北大学人与自然协会","112.449","38.016","山西","太原市","尖草坪区"
"637","太原工业学院环保协会","112.554","37.9647","山西","太原市","尖草坪区"
"638","山西农业大学心绿环保协会","112.59","37.45","山西","晋中市","太谷县"
"639","山西农业大学绿微","112.581","37.437","山西","晋中市","太谷县"
"640","山西农业大学绿色方阵","112.6","37.441","山西","晋中市","太谷县"
"642","山西农业大学资环学院绿色家园协会","112.589","37.43","山西","晋中市","太谷县"
"653","太原大学外语师范学院欣欣然环保协会","112.552","37.8419","山西","太原市","迎泽区"
"654","山西师范大学绿色先锋队","111.512","36.0865","山西","临汾市","尧都区"
"655","山西师范大学绿色论坛","111.512","36.0865","山西","临汾市","尧都区"
"656","太原师范学院地理环境与生态协会","112.576","37.8455","山西","太原市","迎泽区"
"657","太原师范学院绿色论坛","112.576","37.8455","山西","太原市","迎泽区"
"658","太原师范学院绿化树","112.575","37.8655","山西","太原市","迎泽区"
"659","太原大学地球村","112.615","37.7005","山西","太原市","小店区"
"660","太原大学环保协会","112.579","37.8906","山西","太原市","迎泽区"
"661","长治学院飞翔生物兴趣拓展协会","113.143","36.2164","山西","长治市","城区"
"662","吕梁学院环保志愿者协会","111.167","37.5314","山西","吕梁市","离石区"
"663","运城学院绿色心环保协会","111.028","35.0357","山西","运城市","盐湖区"
"670","忻州师院五寨分院绿芽环保协会","111.845","38.9163","山西","忻州市","五寨县"
"672","太旅绿协","112.588","37.8376","山西","太原市","迎泽区"
"673","山西医科大学绿色环保协会","112.561","37.8567","山西","太原市","迎泽区"
"674","山西建筑职业技术学院环保协会","112.588","37.816","山西","太原市","迎泽区"
"675","山西建筑职业技术学院绿色行动团","112.588","37.8135","山西","太原市","迎泽区"
"676","山西生物应用职业技术学院环保协会","112.658","37.7819","山西","太原市","小店区"
"677","山西工程职业技术学院环保协会","112.557","37.8858","山西","太原市","迎泽区"
"678","山西林业学院环保协会","112.546","37.9007","山西","太原市","杏花岭区"
"679","太原园艺学院环境保护社","112.463","37.7357","山西","太原市","晋源区"
"680","晋东南师范专科学校环保协会","113.128","36.3045","山西","长治市","城区"
"681","山西理工学院大学生绿色环保协会","112.764","37.7111","山西","晋中市","榆次区"
"682","太原重型机械学院绿色营","112.499","37.8808","山西","太原市","万柏林区"
"719","海大青志","121.533","38.8743","辽宁","大连市","甘井子区"
"721","大连理工大学爱心绿色协会","121.536","38.8887","辽宁","大连市","甘井子区"
"722","大连水产“绿色希望”环保协会","121.56","38.8743","辽宁","大连市","沙河口区"
"723","大外青协","121.315","38.8185","辽宁","大连市","旅顺口区"
"724","大连医科大学赤子之心环保协会","121.52","38.8599","辽宁","大连市","甘井子区"
"725","东北财经大学环保协会","121.558","38.884","辽宁","大连市","沙河口区"
"726","志愿东大","123.423","41.7673","辽宁","沈阳市","和平区"
"727","东北大学绿色先锋环保社团","123.426","41.7708","辽宁","沈阳市","和平区"
"728","东北大学工商管理学院色希望环保协会","123.423","41.771","辽宁","沈阳市","和平区"
"729","东北大学文法学院绿色力量环保协会","123.422","41.768","辽宁","沈阳市","浑南经济开发区"
"731","辽宁大学绿舟环保协会","123.413","41.8393","辽宁","沈阳市","皇姑区"
"732","辽宁商贸职业学院绿色环保社","123.551","41.8303","辽宁","沈阳市","东陵区"
"733","辽宁机电职业技术学院青年志愿者协会","124.354","40.0209","辽宁","丹东市","振兴区"
"734","沈阳建筑大学绿十字协会","123.522","41.7494","辽宁","沈阳市","浑南经济开发区"
"735","辽宁科技学院环保协会","123.804","41.2914","辽宁","本溪市","明山区"
"736","辽宁石油化工大学青年志愿者协会","123.797","41.8645","辽宁","抚顺市","望花区"
"737","辽宁师范大学绿色协会","121.569","38.9226","辽宁","大连市","沙河口区"
"738","辽宁营口市环保志愿者组织","122.243","40.6646","辽宁","营口市","站前区"
"739","沈阳大学绿箭环保协会","123.467","41.8324","辽宁","沈阳市","大东区"
"758","沈阳工业大学环保协会","123.256","41.7433","辽宁","沈阳市","铁西区"
"759","沈阳航空工业学院绿色家园环保协会","123.423","41.8619","辽宁","沈阳市","皇姑区"
"760","沈阳化工大学“绿色行动”环保协会","123.242","41.754","辽宁","沈阳市","铁西区"
"761","沈阳建筑大学绿远环境协会","123.529","41.7522","辽宁","沈阳市","东陵区"
"762","城院志愿者协会","123.547","41.631","辽宁","沈阳市","苏家屯区"
"763","沈阳理工绿城环保","123.498","41.7332","辽宁","沈阳市","浑南经济开发区"
"764","沈阳农业大学“绿之翼”环保社团","123.574","41.8336","辽宁","沈阳市","东陵区"
"765","沈阳师范大学绿鸽环保协会","123.421","41.9138","辽宁","沈阳市","皇姑区"
"766","沈阳师范大学“绿文化”传播中心","123.421","41.9138","辽宁","沈阳市","皇姑区"
"767","沈阳市鲜色自然环保协会","123.442","41.8123","辽宁","沈阳市","沈河区"
"768","沈阳体育学院绿色环保协会","123.447","41.8484","辽宁","沈阳市","皇姑区"
"769","沈阳药科大学环保协会","123.453","41.7751","辽宁","沈阳市","沈河区"
"770","沈阳音乐学院环保社团","123.437","41.7746","辽宁","沈阳市","和平区"
"771","中国刑警学院环保服务队","123.387","41.8486","辽宁","沈阳市","皇姑区"
"792","常熟高等专科学校环保协会 ","120.782","31.5932","江苏","苏州市","常熟市"
"793","常熟理工学院环保协会","120.743","31.615","江苏","苏州市","常熟市"
"800","山西大学蓝天学社","112.594","37.8077","山西","太原市","迎泽区"
"831","常州工学院环保协会","119.973","31.8125","江苏","常州市","其他区县"
"832","常州机电职业技术学院绿橄榄环保协会","119.944","31.6901","江苏","常州市","其他区县"
"833","东南大学丁家桥校区环保协会","118.783","32.081","江苏","南京市","鼓楼区"
"834","海安县艺术学校保护母亲河青少年环境保护监督岗","120.482","32.5389","江苏","南通市","海安县"
"835","河海大学江宁校区环保协会","118.794","31.9207","江苏","南京市","其他区县"
"836","淮海工学院四人联盟阵地","119.228","34.6119","江苏","连云港市","新浦区"
"837","淮阴师范学院绿之源环保协会","119.014","33.6457","江苏","淮安市","淮阴区"
"838","江南大学环保协会","120.282","31.4957","江苏","无锡市","其他区县"
"860","江苏城市职业学院海阔天空环保协会","118.753","32.0248","江苏","南京市","鼓楼区"
"862","江苏大学环保协会","119.521","32.2057","江苏","镇江市","其他区县"
"865","江苏广播电视大学环保协会","118.745","32.0695","江苏","南京市","其他区县"
"866","江苏广播电视大学海阔天空环保协会","118.753","32.0249","江苏","南京市","高新开发区"
"867","江苏技术师范学院蓝天绿地环保协会","119.661","31.5636","江苏","常州市","钟楼区"
"868","江苏无锡宜兴新建中学中国共青团环保小分队","119.661","31.5636","江苏","无锡市","崇安区"
"869","江苏徐州市第一中学绿幻环保社","117.188","34.2751","江苏","徐州市","云龙区"
"870","江苏扬州环境资源学院绿音环保协会","119.4","32.3443","江苏","扬州市","开发区"
"871","金陵科技学院野生动物保护协会","118.906","31.9113","江苏","南京市","江宁区"
"872","金陵科技学院环保协会","119.251","34.6683","江苏","连云港市","新浦区"
"873","金陵科技学院绿旗环保协会","118.818","32.128","江苏","南京市","秦淮区"
"874","连云港职业技术学院环保协会","119.248","34.6681","江苏","连云港市","新浦区"
"875","南京财经大学风之蓝环境保护协会","118.93","32.1116","江苏","南京市","高新开发区"
"876","南京大学环境协会","118.787","32.0594","江苏","南京市","高新开发区"
"877","南京大学（鼓楼）绿色驿站环保协会","118.787","32.0594","江苏","南京市","鼓楼区"
"878","南京大学（研究生会）环境保护协会（研究生会）","118.787","32.0594","江苏","南京市","鼓楼区"
"879","南京工程学院环境协会","118.896","31.9266","江苏","南京市","江宁区"
"880","南京工业大学绿色环保协会","118.649","32.0813","江苏","南京市","其他区县"
"881","南京工业职业技术学院绿色环保协会","118.948","32.1265","江苏","南京市","栖霞区"
"882","南京航天航空大学绿色家园环保协会","118.824","32.0408","江苏","南京市","白下区"
"883","南京化工职业技术学院寸草环保协会","118.752","32.2229","江苏","南京市","其他区县"
"886","南京化工职业技术学院绿色环保协会","118.752","32.2229","江苏","南京市","高新开发区"
"887","南京经济学院环保协会","118.767","32.0921","江苏","南京市","鼓楼区"
"888","南京理工大学绿树再生资源协会","118.864","32.0328","江苏","南京市","高新开发区"
"889","南京林业大学环境协会","118.825","32.0839","江苏","南京市","高新开发区"
"890","南京农业大学绿源环境保护协会","118.85","32.039","江苏","南京市","玄武区"
"891","南京气象学院环保协会","118.85","32.039","江苏","南京市","浦口区"
"892","南京人口学院环保卫士协会(沧波门)","118.907","32.0252","江苏","南京市","高新开发区"
"893","南京森林公安高等专科学校会野生动植物保护协会","118.925","32.1123","江苏","南京市","栖霞区"
"894","南京审计学院环境保护协会（浦口）","118.616","32.0682","江苏","南京市","浦口区"
"895","南京师范大学自然风环保协会","118.917","32.1072","江苏","南京市","高新开发区"
"896","南京信息工程大学环保协会（青衣社）","118.73","32.2105","江苏","南京市","高新开发区"
"897","南京医科大学青年在志愿者协会绿色行动营","118.896","31.9459","江苏","南京市","江宁区"
"898","南京医科大学环保协会","118.781","32.0488","江苏","南京市","鼓楼区"
"900","南邮绿色风环保协会","118.937","32.1216","江苏","南京市","栖霞区"
"901","南京邮电学院环保协会","118.778","32.0866","江苏","南京市","鼓楼区"
"903","南京中医药大学繁叶环保协会","120.9","32.0148","江苏","南京市","高新开发区"
"904","南通纺织职业技术学院环保协会","120.896","32.0132","江苏","南通市","经济开发区"
"905","南通职业大学环保协会","120.9","32.0148","江苏","南通市","经济开发区"
"906","苏州城市建设环境保护学院环保协会","120.44","31.3351","江苏","苏州市","高新区"
"931","包头师范学院环保协会","109.894","40.6632","内蒙古","包头市","青山区"
"932","大庆师范学院Clearearth绿色环保协会","124.869","46.6459","黑龙江","大庆市","让胡路区"
"933","大庆石油学院环保协会","125.16","46.6001","黑龙江","大庆市","龙凤区"
"934","东北农业大学绿色志愿者协会","126.734","45.7484","黑龙江","哈尔滨市","南岗区"
"935","东北农业大学大学生绿色环保联盟","126.734","45.7484","黑龙江","哈尔滨市","香坊区"
"936","哈尔滨学院绿协","126.613","45.7126","黑龙江","哈尔滨市","南岗区"
"937","哈尔滨工程大学绿色协会","126.689","45.7816","黑龙江","哈尔滨市","南岗区"
"938","哈尔滨工业大学绿色协会","126.637","45.752","黑龙江","哈尔滨市","道里区"
"946","哈工大生态伦理研究会","126.647","45.772","黑龙江","哈尔滨市","道里区"
"956","环科协会 nkesa","117.177","39.1081","天津","天津市","南开区"
"967","河北工业大学能源与环境工程学院环协","117.182","39.1846","天津","天津市","红桥区"
"972","南开大学诺亚协会","117.177","39.1103","天津","天津市","南开区"
"975","南开大学环境保护与野生动物协会","117.177","39.1093","天津","天津市","南开区"
"981","天津师范大学环境与生态保护协会","117.134","39.0672","天津","天津市","西青区"
"982","天津师范大学爱虎先锋社团","117.191","39.1035","天津","天津市","河西区"
"983","盐城工学院环保协会","120.207","33.3886","江苏","盐城市","亭湖区"
"984","盐城工学院绿色同盟会","120.144","33.4015","江苏","盐城市","亭湖区"
"986","天津渤海职业技术学院绿色组织","117.212","39.1014","天津","天津市","河西区"
"987","天津财经学院环保协会","117.285","39.0657","天津","天津市","河西区"
"988","天津城建大学环保科技协会","117.103","39.1014","天津","天津市","西青区"
"989","天津大学北洋环保协会","117.182","39.1149","天津","天津市","南开区"
"990","复旦大学人与自然协会","121.457","31.2032","上海","上海市","徐汇区"
"991","天津大学环保协会","117.182","39.1149","天津","天津市","南开区"
"992","天津对外经贸职业学院绿光社团","117.233","39.0664","天津","天津市","河西区"
"993","复旦环境协会","121.51","31.3043","上海","上海市","杨浦区"
"994","天工大环协","117.244","39.1386","天津","天津市","河东区"
"995","天津机电职业技术学院环保协会","117.142","39.1822","天津","天津市","红桥区"
"996","复旦大学天行者","121.51","31.3043","上海","上海市","杨浦区"
"997","天津科技大学绿野之风","117.278","39.0772","天津","天津市","河西区"
"998","复旦大学绿色沸点环保协会","121.51","31.3043","上海","上海市","杨浦区"
"999","天津理工大学绿色火焰环保协会","117.148","39.0671","天津","天津市","南开区"
"1000","天津理工大学环安学社","117.148","39.0671","天津","天津市","南开区"
"1001","天津农学院归然环保社","117.107","39.0974","天津","天津市","西青区"
"1002","天津轻工职业技术学院寸草心环境保护社团","117.38","39.0271","天津","天津市","津南区"
"1003","天津轻工职业技术学院青年志愿者协会绿队","117.381","39.0276","天津","天津市","津南区"
"1004","天津商学院绿蜻蜓环保协会","117.104","39.1913","天津","天津市","北辰区"
"1005","复旦大学大学生绿色论坛","121.51","31.3043","上海","上海市","杨浦区"
"1006","复旦大学附属中学上海·绿色论坛","121.513","31.295","上海","上海市","杨浦区"
"1007","东华大学绿手印","121.22","31.0627","上海","上海市","松江区"
"1008","华东理工大学环保协会","121.425","31.1404","上海","上海市","徐汇区"
"1009","华东理工资源与环境工程学院环保协会","121.433","31.1543","上海","上海市","徐汇区"
"1010","华师大生命与自然协会","121.413","31.2344","上海","上海市","普陀区"
"1011","华东师范大学O3协会","121.413","31.2344","上海","上海市","普陀区"
"1012","华东政法学院人与自然协会 ","121.204","31.0623","上海","上海市","松江区"
"1013","天津石油技术学院公益环境保护协会","117.225","38.8496","天津","天津市","静海县"
"1014","天津体育学院绿色环保社团","117.194","39.0815","天津","天津市","河西区"
"1015","天津外国语学院环保协会","117.474","38.8653","天津","天津市","大港区"
"1016","天医环协","117.191","39.1122","天津","天津市","和平区"
"1017","天津医科大学临床医学院绿飓风环保协会","117.47","38.8732","天津","天津市","大港区"
"1018","天津职业大学南极冰社团","117.222","39.1901","天津","天津市","河北区"
"1019","天职师大环保协会","117.3","39.0681","天津","天津市","河西区"
"1020","盐城师范学院“绿色先锋”环保志愿者协会","120.164","33.3886","江苏","盐城市","亭湖区"
"1021","扬州大学经济学院环保协会","119.429","32.3959","江苏","扬州市","开发区"
"1023","天津中医药大学环保协会","117.172","39.1226","天津","天津市","南开区"
"1024","天狮职业技术学院环保协会","117.078","39.4077","天津","天津市","武清区"
"1025","CAUC环境保护协会","117.354","39.1133","天津","天津市","东丽区"
"1026","中国民用航空学院环保协会","117.359","39.1129","天津","天津市","东丽区"
"1027","苏大绿协","120.645","31.3098","江苏","苏州市","吴中区"
"1028","苏州工艺美术学院环保行动社","120.59","31.2372","江苏","苏州市","虎丘区"
"1029","苏科大碧水蓝天环保协会","120.566","31.3102","江苏","苏州市","高新区"
"1030","宿迁学院环保协会","118.303","33.9331","江苏","宿迁市","宿城区"
"1031","徐州建筑职业技术学院晨曦社","117.188","34.2078","江苏","徐州市","泉山区"
"1032","扬州大学旅游烹饪（食品科学与工程）学院环保协会","119.412","32.3499","江苏","扬州市","邗江区"
"1043","上海财经大学牵手社","121.51","31.3118","上海","上海市","虹口区"
"1044","上海大学环保社","121.401","31.3222","上海","上海市","宝山区"
"1045","上海大学绿色时尚联盟","121.401","31.3222","上海","上海市","宝山区"
"1046","上海第二军医大学绿色月亮环保协会","121.534","31.3154","上海","上海市","杨浦区"
"1047","上海第二军医大学绿色联盟环保协会","121.534","31.3154","上海","上海市","杨浦区"
"1048","上海电力学院环境保护协会","121.554","31.2778","上海","上海市","杨浦区"
"1049","上海电力学院节能社","121.554","31.2778","上海","上海市","杨浦区"
"1062","哈尔滨金融高等专科学校绿藤","126.746","45.7296","黑龙江","哈尔滨市","香坊区"
"1063","哈尔滨科技学院大学生绿色协会","126.967","45.5492","黑龙江","哈尔滨市","阿城区"
"1064","哈尔滨理工大学节保协会","126.621","45.7219","黑龙江","哈尔滨市","香坊区"
"1065","哈理工大学绿荫协会","126.621","45.7219","黑龙江","哈尔滨市","南岗区"
"1066","哈商大绿协","126.571","45.8245","黑龙江","哈尔滨市","松北区"
"1067","黑龙江财经学院环保协会","126.497","45.8816","黑龙江","哈尔滨市","呼兰区"
"1068","哈尔滨师范大学绿协","126.633","45.735","黑龙江","哈尔滨市","南岗区"
"1069","上海电子信息学院绿色文明会","121.7","30.9304","上海","上海市","奉贤区"
"1070","上海海事大学绿色联盟","121.912","30.8804","上海","上海市","浦东新区"
"1071","上海海事大学环境科学爱好者协会","121.912","30.8804","上海","上海市","浦东新区"
"1072","上海交通大学绿色之友环保协会","121.439","31.2051","上海","上海市","徐汇区"
"1073","上海交通大学绿梧桐环保协会","121.443","31.032","上海","上海市","闵行区(浦江镇)"
"1074","上海交通大学蓝色空间环保协会","121.443","31.032","上海","上海市","闵行区(浦江镇)"
"1075","上海交通大学绿色叶子","121.443","31.032","上海","上海市","闵行区(浦江镇)"
"1076","哈师大环保志愿者","126.633","45.735","黑龙江","哈尔滨市","南岗区"
"1077","哈尔滨医科大学“绿话”","125.174","46.6044","黑龙江","大庆市","龙凤区"
"1078","黑龙江大学绿岛环保协会","126.62","45.7143","黑龙江","哈尔滨市","南岗区"
"1079","黑龙江工程学院阳光环保协会","126.698","45.7898","黑龙江","哈尔滨市","道外区"
"1114","上海理工大学环境保护社","121.562","31.299","上海","上海市","杨浦区"
"1115","上海理工大学ExcellentSky环保社","121.562","31.299","上海","上海市","杨浦区"
"1116","上海理工大学绿色之路协会","121.562","31.299","上海","上海市","杨浦区"
"1117","上海杉达学院花之社","121.665","31.2736","上海","上海市","浦东新区"
"1118","上海师大城市小组 ","121.423","31.1675","上海","上海市","徐汇区"
"1119","上海师范大学格林之旅","121.528","30.8448","上海","上海市","奉贤区"
"1120","上海师范大学绿色行动志愿者协会","121.424","31.1676","上海","上海市","徐汇区"
"1121","上海海洋大学环保协会","121.904","30.8911","上海","上海市","浦东新区"
"1122","海大环协","121.902","30.8919","上海","上海市","浦东新区"
"1125","珲春市野生动植物保护协会","130.37","42.8739","吉林","延边州","珲春市"
"1127","塘下镇环境保护协会","120.704","27.839","浙江","温州市","瑞安市"
"1128","上海富国环保公益基金会","121.51","31.2417","上海","上海市","浦东新区"
"1129","上海外国语大学Discovery生物社","121.231","31.0527","上海","上海市","松江区"
"1130","上外薄荷环保社","121.489","31.2808","上海","上海市","虹口区"
"1131","黑龙江生态工程职业学院基诺环保志愿者协会","126.508","45.8821","黑龙江","哈尔滨市","呼兰区"
"1132","黑龙江中医药大学绿色使者协会","126.655","45.7321","黑龙江","哈尔滨市","香坊区"
"1133","呼伦贝尔学院绿色北疆青年环保志愿者协会","119.785","49.2066","内蒙古","呼伦贝尔市","海拉尔区"
"1134","佳木斯大学环境保护协会","130.368","46.792","黑龙江","佳木斯市","向阳区"
"1135","牡丹江师范学院环保协会","129.57","44.5922","黑龙江","牡丹江市","爱民区"
"1136","牡丹江医学院绿色志愿者协会","129.586","44.6092","黑龙江","牡丹江市","爱民区"
"1137","内蒙古财经学院绿家园协会","111.639","40.8603","内蒙古","呼和浩特市","新城区"
"1138","内蒙古大学环保文学社","111.698","40.8165","内蒙古","呼和浩特市","赛罕区"
"1139","内蒙古工业大学“Fresh”节能与环保协会","111.689","40.8499","内蒙古","呼和浩特市","新城区"
"1140","内蒙古建筑职业技术学院环保协会","111.646","40.8222","内蒙古","呼和浩特市","回民区"
"1141","内蒙古农业大学环保协会","111.909","40.8823","内蒙古","呼和浩特市","赛罕区"
"1142","内蒙古农业大学地球大使","111.709","40.8146","内蒙古","呼和浩特市","赛罕区"
"1143","内蒙古农业大学自然之子环保协会","111.709","40.8123","内蒙古","呼和浩特市","赛罕区"
"1144","内蒙古师范大学韵绿环保协会","111.702","40.8099","内蒙古","呼和浩特市","赛罕区"
"1145","内蒙古医学院绿光环保协会","111.667","40.8267","内蒙古","呼和浩特市","回民区"
"1146","齐齐哈尔大学绿萌环保协会","123.936","47.357","黑龙江","齐齐哈尔市","建华区"
"1147","通辽职业学院美煦环保社团","122.257","43.687","内蒙古","通辽市","科尔沁区"
"1148","安徽财经大学绿色同盟","117.431","32.913","安徽","蚌埠市","蚌山区"
"1149","安徽财经大学绿ing社","117.402","32.9292","安徽","蚌埠市","蚌山区"
"1154","三联职业技术学院绿色梦旅环保协会","117.204","31.7584","安徽","合肥市","蜀山区"
"1155","皖南医学院BLUESKY环保协会","118.38","31.3486","安徽","芜湖市","镜湖区"
"1156","芜湖师范专科学校绿色环保组织","118.362","31.2605","安徽","芜湖市","弋江区"
"1157","宿州学院环保协会","117.083","33.6392","安徽","宿州市","埇桥区"
"1158","中国科技大学环保协会","117.275","31.843","安徽","合肥市","包河区"
"1166","上海应用技术学院绿色未来同盟","121.425","31.1738","上海","上海市","闵行区（浦江镇以外）"
"1167","上海应用技术学院大学生绿色论坛","121.428","31.1728","上海","上海市","徐汇区"
"1168","上海应用技术学院环境保护社 ","121.429","31.1724","上海","上海市","徐汇区"
"1169","上海中医药大学环保社","121.603","31.2003","上海","上海市","浦东新区"
"1170","同济大学人与自然协会","121.507","31.2886","上海","上海市","杨浦区"
"1171","同济大学绿色之路协会","121.507","31.2886","上海","上海市","杨浦区"
"1172","环保绿色论坛","121.566","31.1957","上海","上海市","浦东新区"
"1203","安徽财贸学院绿脉协会","117.188","31.7579","安徽","合肥市","肥西县"
"1204","安徽财贸学院合肥职业技术学院绿色环境保护协会","117.401","32.9262","安徽","蚌埠市","蚌山区"
"1205","安徽大学环境保护协会","117.19","31.773","安徽","合肥市","蜀山区"
"1206","安徽大学江淮学院环保协会","117.262","31.8508","安徽","合肥市","包河区"
"1207","安徽工程大学环保志愿者协会","118.419","31.3418","安徽","芜湖市","鸠江区"
"1208","安徽工业大学大学生旅游与环保协会（马鞍山）","118.561","31.6751","安徽","马鞍山市","雨山区"
"1209","安徽行政学院阳光社环境保护协会","117.292","31.8301","安徽","合肥市","包河区"
"1210","安徽建筑工业职业学院环保协会（合肥）","117.261","31.8188","安徽","合肥市","包河区"
"1211","安徽交通职业技术学院环保协会（合肥）","117.306","31.8362","安徽","合肥市","包河区"
"1212","安徽警官职业学院绿色环保协会","117.231","31.8806","安徽","合肥市","蜀山区"
"1213","安徽科技学院环保协会（凤阳）","117.573","32.8785","安徽","滁州市","凤阳县"
"1214","安徽理工大学大学生绿色协会","117.017","32.6396","安徽","淮南市","田家庵区"
"1215","安徽林业职业技术学院环境保护协会","117.195","31.8466","安徽","合肥市","蜀山区"
"1216","安徽农业大学环保协会","117.268","31.8631","安徽","合肥市","蜀山区"
"1217","安徽农业大学绿色家园环保志愿者协会","117.268","31.8631","安徽","合肥市","蜀山区"
"1218","安徽涉外经济职业学院蓝天环保协会","117.22","31.7768","安徽","合肥市","蜀山区"
"1219","安徽师范大学环保协会（芜湖）","118.381","31.3397","安徽","芜湖市","镜湖区"
"1220","安徽水利水电职业技术学院环境保护协会","117.434","31.8305","安徽","合肥市","蜀山区"
"1221","安徽水利水电职业技术学院绿色环保志愿者协会","117.434","31.8314","安徽","合肥市","蜀山区"
"1222","万博科技职业学院环境保护协会","117.213","31.8681","安徽","合肥市","蜀山区"
"1223","安徽新华学院青年志愿者协会环保社","117.192","31.8329","安徽","合肥市","蜀山区"
"1224","安徽医科大学环境保护协会（合肥）","117.269","31.8555","安徽","合肥市","蜀山区"
"1225","安徽医学高等专科院校环保协会(合肥)","117.232","31.7917","安徽","合肥市","蜀山区"
"1226","安徽职业技术学院绿色环保协会（合肥）","117.386","31.9349","安徽","合肥市","瑶海区"
"1227","安徽中医学院 人与自然协会（合肥）","117.232","31.7917","安徽","合肥市","瑶海区"
"1229","蚌埠航校环保协会","117.268","31.8571","安徽","合肥市","庐阳区"
"1230","蚌埠学院绿色环境保护者协会","117.43","32.8955","安徽","蚌埠市","龙子湖区"
"1231","蚌埠医学院环境保护协会","117.435","32.9093","安徽","蚌埠市","龙子湖区"
"1232","巢湖学院人文环保协会","117.936","31.6559","安徽","巢湖市","民营开发区"
"1233","巢湖职业技术学院环保协会","117.879","31.6264","安徽","巢湖市","民营开发区"
"1234","阜阳师范学院绿风环保社","115.813","32.8989","安徽","阜阳市","颍州区"
"1235","阜阳一中环保行动社","115.828","32.9116","安徽","阜阳市","颍州区"
"1236","阜阳职业技术学院环保协会","115.8","32.8927","安徽","阜阳市","颍州区"
"1237","合工大环保协会","117.302","31.8506","安徽","合肥市","包河区"
"1238","合肥学院环保协会","117.271","31.8461","安徽","合肥市","蜀山区"
"1239","合肥师范学院绿色环保协会","117.271","31.8466","安徽","合肥市","蜀山区"
"1240","合肥学院绿满江淮高校部","117.271","31.8466","安徽","合肥市","庐阳区"
"1241","合肥职业技术学院绿色环境保护协会","117.916","31.6186","安徽","巢湖市","居巢区"
"1242"," 淮北师范大学绿野环保协会","116.822","33.99","安徽","淮北市","相山区"
"1243","淮南联合大学绿色家园","116.957","32.6188","安徽","淮南市","田家庵区"
"1244","淮南师范学院环境保护协会","117.017","32.6501","安徽","淮南市","开发区"
"1245","淮南职业技术学院环保协会","117.018","32.6285","安徽","淮南市","开发区"
"1246","黄山学院环保协会","118.299","29.6974","安徽","黄山市","屯溪区"
"1247","灵璧一中学生绿色社团","117.561","33.5426","安徽","宿州市","灵璧县"
"1248","灵璧中学绿色小组织","117.567","33.5423","安徽","宿州市","灵璧县"
"1249","忻州师范学院绿色地球协会","112.734","38.4356","山西","忻州市","忻府区"
"1253","合一绿学院","116.318","39.9837","北京","北京市","海淀区"
"1256","绿色浙江","120.175","30.3034","浙江","杭州市","下城区"
"1259","E-green","120.514","31.505","江苏","无锡市","新区"
"1260","绿迹环保","117.278","31.8858","安徽","合肥市","庐阳区"
"1265","天津生态城绿色之友生态文化促进会","117.154","39.1368","天津","天津市","南开区"
"1268","四子王旗环保志愿者","111.696","41.5416","内蒙古","乌兰察布市","四子王旗"
"1273","棵林环境保护协会","119.987","31.8406","江苏","常州市","新北区"
"1274","欢乐义工环保协会","120.382","31.5561","江苏","无锡市","新区"
"1283","中国绿发会","116.316","39.9544","北京","北京市","海淀区"
"1286","欣绿桥","117.212","31.8335","安徽","合肥市","蜀山区"
"1287","朝露环保","120.586","30.0431","浙江","绍兴市","越城区"
"1293","平湖美丽家园","121.031","30.695","浙江","嘉兴市","平湖市"
"1296","安吉环保公益协会.","119.689","30.6444","浙江","湖州市","安吉县"
"1297","清禾公益","119.976","30.5377","浙江","湖州市","德清县"
"1298","天津绿领","117.204","39.1383","天津","天津市","河北区"
"1303","五彩淮南环境和发展中心","117.023","32.6441","安徽","淮南市","田家庵区"
"1304","中国环境管理干部学院自然之家","119.46","39.8679","河北","秦皇岛市","北戴河区"
"1306","中国环境管理干部学院明天环保社团","119.598","39.9714","河北","秦皇岛市","北戴河区"
"1307","中北大学环协","112.449","38.0163","山西","太原市","尖草坪区"
"1310","山西大学地球村环保协会","112.603","37.874","山西","太原市","杏花岭区"
"1311","北京吉利学院绿音环保社","116.171","40.1832","北京","北京市","昌平区"
"1320","合肥学院大学生环保协会","117.256","31.7599","安徽","合肥市","蜀山区"
"1324","金职院师范学院星之绿环保协会","119.643","29.07","浙江","金华市","婺城区"
"1328","中国矿业大学大学生世纪环保组织","117.152","34.2214","江苏","徐州市","铜山县"
"1329","山西农业大学绿芽","112.589","37.43","山西","晋中市","太谷县"
"1330","绿地里","116.109","39.9039","北京","北京市","门头沟区"
"1335","丹阳市生态环境公益保护协会","119.613","32.0158","江苏","镇江市","丹阳市"
"1336","南京玄武生态环保协会","118.809","32.0556","江苏","南京市","玄武区"
"1337","中国环境管理干部学院绿墨协会","119.463","39.8715","河北","秦皇岛市","北戴河区"
"1338","金职院制药学院分析协会","119.643","29.07","浙江","金华市","婺城区"
"1343","江苏观鸟会","118.807","32.0565","江苏","南京市","玄武区"
"1344","安徽观鸟会","117.266","31.8893","安徽","合肥市","庐阳区"
"1349","劲草同行","116.318","39.9837","北京","北京市","海淀区"
"1351","勺嘴鹬在中国","121.518","31.2267","上海","上海市","黄浦区"
"1352","自然之友野鸟会","116.666","40.1375","北京","北京市","顺义区"
"1358","山西水利职业技术学院水资源保护社团","111.041","35.0595","山西","运城市","盐湖区"
"1361","山西煤炭职业技术学院青缘环保协会","112.632","37.8062","山西","太原市","小店区"
"1365","盘锦观鸟协会","122.073","41.1253","辽宁","盘锦市","兴隆台区"
"1366","浙江野鸟会","120.172","30.2829","浙江","杭州市","下城区"
"1371","山西经济管理干部学院生态环保宣讲团","112.457","37.7336","山西","太原市","晋源区"
"1372","中国猫科动物保护联盟","116.134","39.9022","北京","北京市","门头沟区"
"1374","上海电力学院环保社","121.554","31.2778","上海","上海市","杨浦区"
"1386","天津观鸟会","117.153","39.1446","天津","天津市","南开区"
"1389","上海交通大学环境保护与研究学会协会","121.443","31.032","上海","上海市","闵行区（浦江镇以外）"
"1391","西乌珠穆沁旗牧区信息服务中心","117.616","44.5938","内蒙古","锡林郭勒盟","西乌珠穆沁旗"
"1394","中国环境管理干部学院纸宣协会","119.463","39.8716","河北","秦皇岛市","北戴河区"
"1395","江苏师范大学新世纪限塑同盟","117.179","34.2486","江苏","徐州市","云龙区"
"1396","安徽师范大学环境与健康协会","118.386","31.29","安徽","芜湖市","弋江区"
"1399","桃花源生态保护基金会","121.289","29.6968","浙江","宁波市","奉化市"
"1400","南京农业大学美境协会","118.849","32.0392","江苏","南京市","玄武区"
"1403","巢湖学院绿色人文环保协会","117.936","31.6559","安徽","巢湖市","居巢区"
"1404","天津石油职业技术学院公益环境保护协会","117.228","38.8518","天津","天津市","静海县"
"1405","浙江海洋学院海洋环保协会","122.199","29.9661","浙江","舟山市","定海区"
"1406","黑龙江大学青年志愿者协会","126.62","45.7143","黑龙江","哈尔滨市","南岗区"
"1407","山西师大文理学院绿色风信子根与芽环保协会","111.556","36.0896","山西","临汾市","尧都区"
"1411","运城幼儿师范高等专科学校向日葵义工社团","111.071","35.1034","山西","运城市","盐湖区"
"1420","黑龙江大学青年志愿者协会宣传部","126.62","45.7143","黑龙江","哈尔滨市","南岗区"
"1426","金陵科技学院环境保护协会","118.846","31.961","江苏","南京市","江宁区"
"1427","中国农业大学绿脉环保协会","116.364","40.0105","北京","北京市","海淀区"
"1430","温州市绿意青年志愿者服务中心","120.706","27.9279","浙江","温州市","瓯海区"
"1434","长春野鸟会","125.293","43.842","吉林","长春市","朝阳区"
"1435","秦皇岛市观(爱)鸟协会","119.777","39.985","河北","秦皇岛市","山海关区"
"1439","大连野鸟会","121.192","38.9025","辽宁","大连市","旅顺口区"
"1441","上海市大学生环保社团联盟","121.423","31.1675","上海","上海市","徐汇区"
"1442","上海政法学院绿联","121.18","31.1165","上海","上海市","青浦区"
"1443","上海中医大学环保社","121.603","31.2003","上海","上海市","浦东新区"
"1444","同济大学绿色校园协会","121.513","31.2883","上海","上海市","杨浦区"
"1450","榆树市野生动植物保护协会","126.54","44.8473","吉林","长春市","榆树市"
"1452","微明文化传播有限公司","121.498","31.2299","上海","上海市","黄浦区"
"1455","慈济慈善基金会（上海分会）","121.537","31.2179","上海","上海市","浦东新区"
"1456","世界自然基金会上海办公室","121.483","31.2778","上海","上海市","虹口区"
"1457","黄奕聪慈善基金会","121.41","31.2148","上海","上海市","长宁区"
"1500","中国农业大学农区环保协会","116.364","40.0105","北京","北京市","顺义区"
"1501","中国农业大学动物保护协会","116.364","40.0105","北京","北京市","海淀区"
"1502","中国农业大学绿舟环保协会","116.364","40.0105","北京","北京市","海淀区"
"1503","中国青年政治学院爬山虎协会","116.315","39.956","北京","北京市","海淀区"
"1504","中国人民大学青年志愿者环保部","116.322","39.9761","北京","北京市","海淀区"
"1505","中国人民大学环保志愿者服务队","116.322","39.9761","北京","北京市","海淀区"
"1506","中国石油大学环境保护协会","116.254","40.2268","北京","北京市","海淀区"
"1507","中国石油大学（北京）绿色协会","116.254","40.2268","北京","北京市","海淀区"
"1508","中国戏曲学院绿色通行环保公益社","116.339","39.87","北京","北京市","海淀区"
"1509","中国政法大学绿色家园","116.254","40.2288","北京","北京市","昌平区"
"1510","中国政法大学环保协会","116.254","40.2288","北京","北京市","海淀区"
"1511","中央财经大学方舟社","116.349","39.9639","北京","北京市","海淀区"
"1512","中央民族大学绿色希望","116.327","39.9566","北京","北京市","海淀区"
"1513","大学生绿色论坛","116.358","40.0107","北京","北京市","海淀区"
"1514","常州野鸟会","119.987","31.7883","江苏","常州市","天宁区"
"1527","杭州电子科技大学青协","120.349","30.3201","浙江","杭州市","江干区"
"1528","杭州电子科技大学环保协会","120.349","30.3201","浙江","杭州市","江干区"
"1529","宁波大学生命学院青协","121.644","29.9149","浙江","宁波市","江东区"
"1530","浙江农林大学大学生资源与环境协会","119.736","30.2621","浙江","杭州市","临安市"
"1531","浙江林学院旅游协会","119.736","30.2621","浙江","杭州市","临安市"
"1532","鹿城水心二小环保假日小队","120.658","28.0039","浙江","温州市","鹿城区"
"1533","龙泉市中等职业学校环保志愿者协会","119.135","28.0641","浙江","丽水市","龙泉市"
"1534","绿眼睛环境组织","120.43","27.5183","浙江","温州市","苍南县"
"1535","浙江林学院生态环境学社","119.736","30.2621","浙江","杭州市","临安市"
"1536","浙江商业职业技术学院绿仆环保协会","120.17","30.1805","浙江","杭州市","滨江区"
"1537","浙江万里学院浙江大学生绿色论坛","121.57","29.823","浙江","宁波市","鄞州区"
"1538","浙江万里学院旅游生态学会","121.57","29.823","浙江","宁波市","鄞州区"
"1539","浙江大学环保协会","120.093","30.3106","浙江","杭州市","西湖区"
"1540","浙江师范大学学生环境保护协会","119.653","29.1421","浙江","金华市","婺城区"
"1541","杭州育英职业技术学院环保协会","120.359","30.3118","浙江","杭州市","江干区"
"1542","杭州职业技术学院绿色环保协会","120.36","30.3267","浙江","杭州市","江干区"
"1543","浙江财经学院绿冉环保协会","120.401","30.3248","浙江","杭州市","江干区"
"1544","浙江大学城市学院绿光协会","120.162","30.3297","浙江","杭州市","拱墅区"
"1545","浙江外国语学院青年志愿者绿色环保分会","120.149","30.2841","浙江","杭州市","西湖区"
"1546","温州医学院环保协会","120.679","28.0136","浙江","温州市","鹿城区"
"1547","金华职业技术学院绿之韵环保协会","119.643","29.07","浙江","金华市","婺城区"
"1548","浙江工商大学环保协会","120.145","30.2913","浙江","杭州市","西湖区"
"1549","浙江树人大学人文学院绿苗根与芽环境教育中心","120.165","30.3242","浙江","杭州市","拱墅区"
"1550","浙江师范大学阳光同心社","119.653","29.1421","浙江","金华市","婺城区"
"1551","浙江农林大学园林设计协会","119.736","30.2621","浙江","杭州市","临安市"
"1552","中国美术学院青年志愿者协会","120.083","30.1601","浙江","杭州市","西湖区"
"1553","浙江农林大学建筑与规划协会","119.736","30.2621","浙江","杭州市","临安市"
"1554","浙江大学绿眼睛环境中心","120.093","30.3106","浙江","杭州市","西湖区"
"1555","开化县少先队环保小卫士大队","118.424","29.1423","浙江","衢州市","开化县"
"1556","鹿城水心小学环保假日小队","120.655","28.0039","浙江","温州市","鹿城区"
"1557","瑞安十中环保社","120.647","27.7904","浙江","温州市","瑞安市"
"1558","瑞安中学环保社","120.63","27.7959","浙江","温州市","瑞安市"
"1559","温州医学院春晖爱心社","120.679","28.0136","浙江","温州市","鹿城区"
"1560","浙江大学浙江根与芽项目组","120.093","30.3106","浙江","杭州市","西湖区"
"1561","绿色浙江技能协会绿色环保分会","120.188","30.2833","浙江","杭州市","下城区"
"1562","温州绿色志愿者协会","120.693","28.0109","浙江","温州市","鹿城区"
"1563","浙江大学感动·西部实践队","120.186","30.3142","浙江","杭州市","下城区"
"1564","宿州市北方中学团委青年志愿者环保组","116.987","33.678","安徽","宿州市","埇桥区"
"1565","北京天恒可持续发展研究","116.33","39.9704","北京","北京市","海淀区"
"1566","北京人与动物环保科普中心","116.428","39.9369","北京","北京市","东城区"
"1568","浙江科技学院沁园环保社","120.035","30.225","浙江","杭州市","西湖区"
"1569","温州大学橄榄枝公益协会","120.702","27.9207","浙江","温州市","瓯海区"
"1570","温州大学大学生青年志愿者服务中心","120.718","27.9317","浙江","温州市","瓯海区"
"1605","中国香根草网络","118.811","32.064","江苏","南京市","玄武区"
"1606","绿色北京","116.568","39.9111","北京","北京市","朝阳区"
"1611","ARB动物之友","116.33","40.1838","北京","北京市","昌平区"
"1612","中华环境保护基金会","116.439","39.8993","北京","北京市","崇文区"
"1617","能源与交通创新中心","116.467","39.9214","北京","北京市","朝阳区"
"1618","北京国仁绿色联盟","116.15","40.0889","北京","北京市","海淀区"
"1619","公众与环境研究中心","116.444","39.915","北京","北京市","朝阳区"
"1660","大庆石油学院青年志愿者协会","125.156","46.5981","黑龙江","大庆市","开发区"
"1661","大庆石油学院华瑞学院户外郊游协会","125.157","46.5965","黑龙江","大庆市","开发区"
"1662","哈尔滨工业大学环境保护协会","126.637","45.752","黑龙江","哈尔滨市","南岗区"
"1663","哈尔滨金融高等专科学校管理系绿藤环保协会","126.745","45.7298","黑龙江","哈尔滨市","香坊区"
"1664","哈尔滨商业大学(南校区)绿色志愿者协会","126.613","45.7448","黑龙江","哈尔滨市","道里区"
"1665","哈尔滨商业大学德强商务学院环保协会","126.497","45.8816","黑龙江","哈尔滨市","其他区县"
"1666","哈尔滨师范大学户外爱好者协会","126.566","45.8724","黑龙江","哈尔滨市","其他区县"
"1667","黑龙江八一农垦大学绿谷之星环保协会","125.176","46.5931","黑龙江","哈尔滨市","其他区县"
"1668","黑龙江东方学院志愿者协会","126.666","45.584","黑龙江","哈尔滨市","平房区"
"1669","黑龙江工程学院青年志愿者协会","126.692","45.7911","黑龙江","哈尔滨市","道外区"
"1670","黑龙江中医药绿色使者协会","126.655","45.7321","黑龙江","哈尔滨市","香坊区"
"1671","齐齐哈尔大学绿荫环保协会","123.936","47.357","黑龙江","齐齐哈尔市","建华区"
"1672","牡丹江医学院绿协","129.586","44.6092","黑龙江","牡丹江市","爱民区"
"1673","北大环发协会","116.333","39.9817","北京","北京市","海淀区"
"1674","北方工业大学环协","116.215","39.9356","北京","北京市","石景山区"
"1675","北大绿色生命协会","116.316","39.9977","北京","北京市","海淀区"
"1676","北大医学部绿风社","116.318","39.9986","北京","北京市","海淀区"
"1677","临县志愿者协会","111.005","37.9833","山西","吕梁市","临县"
"1678","北二外绿协","116.572","39.918","北京","北京市","海淀区"
"1679","北京服装学院绿社","116.436","39.9801","北京","北京市","朝阳区"
"1680","北京服装学院守望者","116.436","39.9801","北京","北京市","朝阳区"
"1681","北京工商大学Greenday","116.321","39.9305","北京","北京市","海淀区"
"1682","北京广播学院绿色动力环保志愿者协会","116.546","39.9189","北京","北京市","朝阳区"
"1683","北航绿翼","116.36","39.9899","北京","北京市","海淀区"
"1684","北京化工大学环保志愿者协会","116.261","40.2215","北京","北京市","昌平区"
"1685","北京建筑工程学院绿绚环保社","116.293","39.7504","北京","北京市","西城区"
"1686","北京交通大学“春萌”志愿者服务团","116.354","39.9582","北京","北京市","海淀区"
"1687","北科绿盾环协","116.364","39.9961","北京","北京市","海淀区"
"1688","北理绿萌","116.324","39.967","北京","北京市","海淀区"
"1689","北京联合大学特殊教育学院友谊环保社团","116.425","39.8738","北京","北京市","丰台区"
"1690","北京林业大学百奥生物协会","116.352","40.0066","北京","北京市","海淀区"
"1691","北京林业大学林海之光志愿者协会","116.352","40.0066","北京","北京市","海淀区"
"1692","北师大PRED学社","116.374","39.9672","北京","北京市","海淀区"
"1696","北师大生物学社","116.374","39.9672","北京","北京市","海淀区"
"1697","北京师范大学白鸽青协","116.374","39.9672","北京","北京市","海淀区"
"1698","北外青协绿色同盟","116.318","39.9615","北京","北京市","海淀区"
"1699","北京物资学院清溪环境","116.646","39.9341","北京","北京市","通州区"
"1700","北京印刷学院环保协会","116.646","39.9341","北京","北京市","大兴区"
"1701","北京印刷学院绿色空间","116.336","39.7499","北京","北京市","大兴区"
"1702","北京语言大学人文学院环保社团","116.336","39.7499","北京","北京市","海淀区"
"1703","北中医绿桥协会","116.336","39.7499","北京","北京市","朝阳区"
"1704","对外经贸大学环保协会","116.434","39.9864","北京","北京市","朝阳区"
"1705","对外经贸大学绿色协会","116.434","39.9864","北京","北京市","朝阳区"
"1706","国际关系学院常青藤环境爱护者协会","116.293","40.01","北京","北京市","海淀区"
"1707","海淀走读学院绿色宝贝","116.354","39.9932","北京","北京市","海淀区"
"1708","清华紫荆志愿者总队","116.328","40.0025","北京","北京市","海淀区"
"1709","清华大学动物保护协会","116.328","40.0025","北京","北京市","海淀区"
"1710","清华大学学生绿协","116.328","40.0025","北京","北京市","海淀区"
"1711","人民公安大学环保协会","116.344","39.9059","北京","北京市","西城区"
"1712","石油化工学院蓝天社","116.333","39.7539","北京","北京市","大兴区"
"1713","首都经贸大学绿色志愿者协会","116.482","39.9212","北京","北京市","朝阳区"
"1714","首都经贸大学绿色生态环保协会","116.482","39.9212","北京","北京市","朝阳区"
"1715","首都师范大学单翼天使","116.314","39.9365","北京","北京市","海淀区"
"1716","首都师范大学绿色之声环保社团","116.314","39.9365","北京","北京市","海淀区"
"1717","首钢工学院环保社","116.314","39.9365","北京","北京市","石景山区"
"1718","中传媒绿协","116.564","39.9187","北京","北京市","朝阳区"
"1719","中国地质大学蔚蓝环保","116.354","39.9972","北京","北京市","海淀区"
"1720","中国地质大学绿色京城","116.354","39.9972","北京","北京市","海淀区"
"1721","北京城市学院环保协会","116.354","39.9932","北京","北京市","海淀区"
"1743","清洁海岸义工团","119.203","34.5954","江苏","连云港市","新浦区"
"1747","盘锦市保护斑海豹志愿者协会","122.055","41.1955","辽宁","盘锦市","双台子区"
"1752","北仑志愿者协会","121.846","29.9139","浙江","宁波市","北仑区"
"1753","绿色少年工作室","116.339","39.7374","北京","北京市","大兴区"
"1754","牵手上海","121.413","31.11","上海","上海市","闵行区（浦江镇以外）"
"1755","秦皇岛市创业者协会","119.591","39.9599","河北","秦皇岛市","海港区"
"1757","天津滨海新区湿地保护志愿者协会","117.715","39.0098","天津","天津市","其他区县"
"1759","温岭青年志愿者协会","121.37","28.3723","浙江","台州市","温岭市"
"1760","小草志愿团","120.923","40.7271","辽宁","葫芦岛市","龙港区"
"1767","南京守望者联盟","118.882","32.0264","江苏","南京市","秦淮区"
"1775","亿利公益基金会","116.372","39.9124","北京","北京市","西城区"
"1782","杭州朴门团队","120.181","30.2713","浙江","杭州市","建德市"
"1785","清华大学美术学院协同创新生态设计中心","116.41","39.9086","北京","北京市","顺义区"
"1786","天津市滨海新区湿地保护志愿者协会","117.201","39.1433","天津","天津市","和平区"
"1788","北京自然向导科普传播中心","116.414","39.9079","北京","北京市","顺义区"
"1789","北京市丰台区绿派同行环境研究所","116.295","39.8647","北京","北京市","丰台区"
"1798","缪尔自然保育生态农业研习中心","121.483","31.2366","上海","上海市","黄浦区"
"1800","中央音乐学院环保社团 环保先锋队","116.366","39.9085","北京","北京市","西城区"
"1808","绿色唱响环保服务队","126.985","46.6457","黑龙江","绥化市","北林区"
"1809","中关村汉德环境观察研究所","116.364","40.0485","北京","北京市","海淀区"
"1810","绿爪子公益团体","116.378","39.9474","北京","北京市","西城区"
"1811","保护地友好体系","116.388","40.0097","北京","北京市","朝阳区"
"1812","内蒙古绿色先锋环境发展发展中心","110.223","41.2411","内蒙古","包头市","固阳县"
"1813","呼伦贝尔民萌草业碳汇与生态文化产业研究所","119.782","49.2068","内蒙古","呼伦贝尔市","海拉尔区"
"1814"," 绿色种子计划","121.504","31.2899","上海","上海市","虹口区"
"1815","龙南绿主妇小队","121.461","31.1615","上海","上海市","徐汇区"
"1816","上海青悦环保","121.367","31.113","上海","上海市","闵行区(浦江镇)"
"1817","自然野趣工作室","121.456","31.2188","上海","上海市","长宁区"
"1818","无痕生态工作室","121.441","31.1954","上海","上海市","徐汇区"
"1819","靖江赤子之心环保公益中心","120.294","32.0476","江苏","泰州市","靖江市"
"1820","绿色衢州环保志愿者团队","118.964","28.9869","浙江","衢州市","衢江区"
"1837","草原之友","111.724","40.8224","内蒙古","呼和浩特市","赛罕区"
"1839","凌云绿主妇","121.423","31.1419","上海","上海市","徐汇区"
"1841","上海长三角人类生态科技发展中心","121.442","31.1758","上海","上海市","徐汇区"
"1228","安庆师范大学大学生绿苑环保协会","117.055","30.5201","安徽","安庆市","迎江区"
"332","皖西学院环协 ","116.49","31.7672","安徽","六安市","裕安区"
"329","绿闽青年交流服务中心 ","119.211","26.073","福建","福州市","闽侯县"
"65","福建绿家园","119.317","26.1005","福建","福州市","鼓楼区"
"1803","福建省绿色科技文化促进会","119.326","26.045","福建","福州市","仓山区"
"304","福建榕树坊 ","119.347","26.0819","福建","福州市","晋安区"
"747","莆田学院环境科学协会","119.017","25.4494","福建","莆田市","城厢区"
"1807","石狮市祥芝美丽海岸志愿者协会","118.772","24.7742","福建","泉州市","石狮市"
"743","黎明职业大学环保协会","118.634","24.8854","福建","泉州市","丰泽区"
"708","福建师范大学闽南科技学院环境保护协会","118.488","25.0416","福建","泉州市","南安市"
"22","中国红树林保育联盟","118.084","24.4615","福建","厦门市","思明区"
"1572","绿水守护者","118.15","24.5205","福建","厦门市","湖里区"
"715","华侨大学环保协会","118.092","24.6089","福建","厦门市","集美区"
"299","鳄鱼屿自然体验中心 ","118.237","24.6407","福建","厦门市","翔安区"
"755","闽南师范大学绿缘环保协会","117.652","24.5134","福建","漳州市","芗城区"
"753","厦门大学嘉庚学院环境保护协会","118.055","24.3731","福建","漳州市","龙海市"
"1289","武夷森林","117.69","27.7494","福建","南平市","武夷山市"
"273","福鼎绿眼睛环保志愿者协会","120.223","27.338","福建","宁德市","福鼎市"
"1421","宁德师范学院绿点环保协会","119.599","26.6647","福建","宁德市","蕉城区"
"1801","福安市环保协会","119.654","27.0945","福建","宁德市","福安市"
"1749","宁德市海洋环境保护志愿者协会","120.028","26.8952","福建","宁德市","霞浦县"
"1609","屏南绿色之家","118.987","26.9014","福建","宁德市","屏南县"
"744","龙岩学院绿卫环保协会","117.03","25.0363","福建","龙岩市","新罗区"
"394","江西师范大学绿色服务团","116.03","28.6878","江西","南昌市","南昌县"
"396","江西新亚职业技术学院环保协会","115.894","28.6896","江西","南昌市","湾里区"
"437","南昌师范高等专科学校青山湖环保社","115.782","28.6702","江西","南昌市","新建县"
"449","江财绿派社","115.861","28.7511","江西","南昌市","东湖区"
"397","江西信息学院青协","115.917","28.5932","江西","南昌市","青云谱区"
"436","南昌理工学院绿之家协会","115.863","28.7882","江西","南昌市","青山湖区"
"390","江西农业大学环境保护与爱护动物协会","115.839","28.7682","江西","南昌市","高新技术开发区"
"417","南昌大学绿环","115.81","28.6613","江西","南昌市","红谷滩新区"
"220","江财绿派","115.861","28.7488","江西","南昌市","昌北经济技术开发区"
"413","九江职业大学环境保护协会","115.969","29.7079","江西","九江市","浔阳区"
"411","九江学院方舟生态协会","116.018","29.6846","江西","九江市","庐山区"
"395","江西陶瓷工艺美术职业技术学院环保协会","117.25","29.3002","江西","景德镇市","珠山区"
"406","景德镇高等专科学校阳光生物学社","117.187","29.2855","江西","景德镇市","昌江区"
"448","鹰潭职业技术学院青年志愿者社团","117.058","28.2232","江西","鹰潭市","月湖区"
"441","新余高等专科学校爱卫会","114.918","27.828","江西","新余市","渝水区"
"404","井冈山学院社团联合会环境保护协会","114.964","27.1156","江西","吉安市","吉州区"
"403","井冈山大学社联环境保护协会","115.038","27.1161","江西","吉安市","青原区"
"1822","江西快乐屋子环保团队","114.018","26.2261","江西","吉安市","遂川县"
"353","赣南师院生态与环境协会","114.938","25.8571","江西","赣州市","章贡区"
"350","东华理工学院环保协会","116.327","27.9409","江西","抚州市","临川区"
"440","上饶师范学院生态与环境协会","117.979","28.4267","江西","上饶市","信州区"
"444","宜春学院大学生环保休闲运动协会","114.364","27.7978","江西","宜春市","袁州区"
"1295","上高青年志愿者协会","114.932","28.2394","江西","宜春市","上高县"
"950","济南大学格润环协","116.98","36.6195","山东","济南市","市中区"
"154","山东大学清泉环保协会","117.067","36.6778","山东","济南市","历下区"
"35","绿行齐鲁","116.991","36.6704","山东","济南市","槐荫区"
"948","山东省商业职业技术学院青协","117.276","36.6414","山东","济南市","历城区"
"1390","山东女子学院绿之源社团","116.83","36.5587","山东","济南市","长清区"
"949","济南保护母亲河小组","117.031","36.6807","山东","济南市","高新区"
"1758","潍坊市鸢都义工公益服务中心","119.183","36.7192","山东","潍坊市","坊子区"
"1033","潍坊学院大学生环保协会","119.187","36.7235","山东","潍坊市","奎文区"
"1300","绿色潍坊","118.797","36.8615","山东","潍坊市","寿光市"
"1762","潍坊滨海义工队","119.157","36.7217","山东","潍坊市","其他区县"
"1123","淄博市绿丝带发展中心","118.056","36.8124","山东","淄博市","张店区"
"1348","东营市观鸟协会","118.654","37.4226","山东","东营市","东营区"
"284","青岛野生动物保护协会 ","120.317","36.0637","山东","青岛市","市南区"
"965","青科大材料与环境科学学院环保协会","120.393","36.1558","山东","青岛市","四方区"
"966","青岛理工大学环保协会","120.211","35.9817","山东","青岛市","黄岛区"
"160","山东青藤","120.474","36.1166","山东","青岛市","崂山区"
"969","青岛农业大学绿梦环保协会","120.403","36.3252","山东","青岛市","城阳区"
"958","山东省临沂师大环协","118.347","35.1399","山东","临沂市","兰山区"
"292","点点环保 ","118.368","35.1093","山东","临沂市","沂南县"
"291","日照市环保志愿者协会 ","119.532","35.4298","山东","日照市","东港区"
"1034","烟台大学资源与环境小队","121.465","37.4796","山东","烟台市","莱山区"
"980","鲁东大学ES能源环保协会","121.366","37.5285","山东","烟台市","芝罘区"
"293","山东威海市大天鹅保护协会 ","122.464","37.1632","山东","威海市","荣成市"
"947","山东工程技术学院环协","116.008","36.489","山东","聊城市","东昌府区"
"1151","枣庄学院绿色先锋","117.543","34.9066","山东","枣庄市","市中区"
"970","曲阜师范大学绿色协会","116.976","35.6016","山东","济宁市","曲阜市"
"1050","山东科技大学绿色环保协会","117.119","36.1987","山东","泰安市","泰山区"
"1061","泰山医学院大学生绿缘环保协会","117.096","36.1377","山东","泰安市","岱岳区"
"1519","河南省中国人民解放军信息工程大学环境保护协会","113.576","34.8202","河南","郑州市","中原区"
"1467","河南郑州旅游职业学院学生环境保护支援者协会","113.703","34.7298","河南","郑州市","二七区"
"757","郑州旅游职业学院学生环境保护支援者协会","113.704","34.7304","河南","郑州市","管城回族区"
"1518","河南省华北水利水电学院青年志愿者环保协会","113.681","34.8172","河南","郑州市","金水区"
"1624","西亚斯国际学院环保协会","113.771","34.4022","河南","郑州市","新郑市"
"1577","河南教育学院教科书循环使用促进会","113.813","34.8106","河南","郑州市","郑东新区"
"756","河南工业大学环保协会","113.557","34.8331","河南","郑州市","高新技术开发区"
"1627","河南检察职业学院环保协会","113.716","34.6134","河南","郑州市","其他区县"
"1650","三门峡职业技术学院绿色环保协会","111.17","34.7953","河南","三门峡市","陕县"
"1576","河南理工大学绿茵环保协会","113.272","35.1943","河南","焦作市","其他区县"
"1578","河南师范大学环境保护协会","113.92","35.3318","河南","新乡市","卫滨区"
"1623","河南科技学院绿遍天涯环境保护协会","113.943","35.2874","河南","新乡市","红旗区"
"794","河南师范大学大学生环保协会","113.919","35.331","河南","新乡市","牧野区"
"328","绿色未来环境保护协会","114.7","35.2094","河南","新乡市","长垣县"
"1279","安阳共同家园野生动物保护协会","114.386","36.0652","河南","安阳市","文峰区"
"1642","开封大学环境保护协会","114.32","34.8055","河南","开封市","金明区"
"1652","许昌职业技术学院清新网络工作室","113.89","34.023","河南","许昌市","许昌县"
"64","河南省罗山鹭鸶保护协会","114.528","32.2092","河南","信阳市","罗山县"
"1651","信阳师范学院生命科技协会","114.048","32.1448","河南","信阳市","浉河区"
"1649","濮阳职业技术学院绿色之风","114.962","35.7763","河南","濮阳市","华龙区"
"1521","河南南阳师范学院绿色环保协会","112.496","32.9819","河南","南阳市","卧龙区"
"1522","河南南阳理工学院环保社团","112.556","32.9798","河南","南阳市","宛城区"
"315","桐柏林业防护协会","113.1","32.49","河南","南阳市","桐柏县"
"1280","驻马店环保协会","114.003","32.9806","河南","驻马店市","驿城区"
"109","淮河卫士","115.081","33.401","河南","周口市","沈丘县"
"1277","武汉美丽江城","114.331","30.543","湖北","武汉市","武昌区"
"650","江汉大学阳光青年志愿者协会","114.164","30.5169","湖北","武汉市","汉阳区"
"605","湖北生态工程学院环保协会","114.343","30.351","湖北","武汉市","江夏区"
"1261","行澈荆楚公益发展中心","114.306","30.5983","湖北","武汉市","江岸区"
"99","绿色江城","114.284","30.6099","湖北","武汉市","江汉区"
"683","武汉科技大学校绿舟环境保护协会","114.433","30.5926","湖北","武汉市","青山区"
"186","华中农业大学绿色协会","114.364","30.4801","湖北","武汉市","洪山区"
"628","武汉科技大学绿联社","114.437","30.5936","湖北","武汉市","东西湖区"
"1793","绿苑十堰","110.818","32.6365","湖北","十堰市","张湾区"
"1271","十堰市学生环保联合会","110.798","32.6272","湖北","十堰市","茅箭区"
"686","郧阳师范高等专科学校环境保护协会","111.546","32.5617","湖北","十堰市","丹江口市"
"651","沙洋师范高等专科学校环境保护协会","112.59","30.7034","湖北","荆门市","沙洋县"
"1350","寸草心乡村环保促进会","113.126","31.0243","湖北","荆门市","京山县"
"157","湖北萤火虫守望中心","113.88","30.6124","湖北","孝感市","汉川市"
"92","绿色汉江","112.162","32.0527","湖北","襄樊市","樊城区"
"1382","襄阳观鸟会","112.14","32.0163","湖北","襄樊市","襄阳区"
"647","湖师青协","115.07","30.2319","湖北","黄石市","黄石港区"
"1423","湖北理工学院绿苑环境保护协会","115.032","30.2147","湖北","黄石市","下陆区"
"276","铜草花","114.977","30.104","湖北","黄石市","大冶市"
"644","湖北省科技学院绿舟环境保护协会","114.344","29.8549","湖北","咸宁市","咸安区"
"1369","荆州市观鸟协会","112.249","30.3446","湖北","荆州市","沙市区"
"645","湖北农学院天蓝草绿环保协会","112.165","30.3564","湖北","荆州市","荆州区"
"1783","长沙市明泽生态影像中心","112.946","28.2358","湖南","长沙市","岳麓区"
"1089","湖南农业大学生态环境保护协会","113.089","28.185","湖南","长沙市","芙蓉区"
"185","中南林业大学绿源","113.004","28.14","湖南","长沙市","天心区"
"1257","长沙市湖湘自然科普中心","112.999","28.2216","湖南","长沙市","开福区"
"1160","中南铁道学院“双创”学校绿色环保中心","113.002","28.1481","湖南","长沙市","雨花区"
"260","湖南省创意环境科技传播中心","112.948","28.2359","湖南","长沙市","长沙县"
"1288","涉外“绿源”环保协会","112.999","28.1381","湖南","长沙市","望城县"
"264","宁乡县环保志愿者协会","112.564","28.2617","湖南","长沙市","宁乡县"
"1101","张家界航院学生会社团联合会环保协会","110.496","29.1302","湖南","张家界市","永定区"
"1824","武陵山生态环境保护联合会","111.691","29.0621","湖南","张家界市","武陵源区"
"941","湖南城建学院环保协会","112.956","27.8213","湖南","湘潭市","岳塘区"
"224","湘潭大学雷锋公司环保协会","112.872","27.8894","湖南","湘潭市","雨湖区"
"1085","湖南科技大学绿色家园环保协会","112.921","27.915","湖南","湘潭市","湘潭县"
"1098","怀化医学高等专科学校环保协会","109.987","27.5575","湖南","怀化市","鹤城区"
"939","湖南文理学院保护母亲河生态监护站","111.679","29.0501","湖南","常德市","武陵区"
"1838","桃源县富群自然资源保护与乡村可持续发展促进会","111.478","28.8987","湖南","常德市","桃源县"
"942","湖南城市学院绿语环保协会","112.397","28.547","湖南","益阳市","赫山区"
"1454","沅江市环保志愿者协会","112.357","28.8543","湖南","益阳市","沅江市"
"1267","洞庭守护者","113.102","29.3783","湖南","岳阳市","岳阳楼区"
"945","湖工绿行","112.691","26.8865","湖南","衡阳市","珠晖区"
"1081","湖南环境生物学院护绿协会","112.608","26.9268","湖南","衡阳市","石鼓区"
"979","湖南环境生物学院“萤星”环保协会","112.623","27.0039","湖南","衡阳市","蒸湘区"
"267","绿满湘南","113.052","25.8067","湖南","郴州市","苏仙区"
"1282","邵阳环保协会","111.445","27.2299","湖南","邵阳市","大祥区"
"116","新宁环保志愿者协会","110.863","26.4405","湖南","邵阳市","新宁县"
"1417","湖南工业大学青年志愿者联合会","113.116","27.8228","湖南","株洲市","天元区"
"1161","湖南工业大学环保协会","113.178","27.8358","湖南","株洲市","荷塘区"
"978","湖南化工职业技术学院环境保护协会","113.104","27.8956","湖南","株洲市","石峰区"
"1091","湖南人文科技学院清沐环境保护协会","112.011","27.7177","湖南","娄底市","娄星区"
"1086","湖南科技学院绿色潇湘环保协会","111.613","26.2108","湖南","永州市","零陵区"
"1099","吉首大学大学生环保协会","109.732","28.2935","湖南","湘西州","吉首市"
"1797","观与爱护自然团队","113.273","23.1366","广东","广州市","花都区"
"1516","广州中医药大学绿色环保协会","113.273","23.1615","广东","广州市","番禺区"
"1580","广州大学华软软件学院环保协会","113.5","23.4566","广东","广州市","从化市"
"1479","南华工商学院蓝汐环保小组","113.42","23.0784","广东","广州市","黄埔区"
"1802","鸟兽虫木自然保育中心","113.294","23.1449","广东","广州市","越秀区"
"104","拜客广州","113.323","23.0932","广东","广州市","海珠区"
"1276","流溪生态保护中心","113.44","23.1321","广东","广州市","天河区"
"1579","广东技术师范学院天河学院绿缘环保协会","113.464","23.2653","广东","广州市","白云区"
"250","洛克菲勒兄弟基金会","113.281","23.1304","广东","广州市","萝岗区"
"1774","麒麟中学红树林社团","113.504","22.8194","广东","广州市","南沙区"
"1784","深圳市蒲公英自然教育促进中心","114.062","22.5285","广东","深圳市","福田区"
"1781","亲亲自然科普环保志愿者协会","114.139","22.5496","广东","深圳市","罗湖区"
"310","深圳大学绿色风 ","113.943","22.5382","广东","深圳市","南山区"
"1484","南华大学青年志愿者协会","113.921","22.5712","广东","深圳市","宝安区"
"1458","“潜爱大鹏”珊瑚保育志愿者联合会","114.486","22.6012","广东","深圳市","龙岗区"
"1464","广东教育学院绿色文明社团","113.322","23.1037","广东","深圳市","盐田区"
"1748","珠海市海洋资源保护开发协会","113.578","22.2383","广东","珠海市","香洲区"
"1459","中山大学（珠海）绿色青年组织","113.596","22.3478","广东","珠海市","其他区县"
"1383","潮汕野鸟会","116.635","23.6805","广东","潮州市","湘桥区"
"1524","汕头大学绿丝带服务学习环保义工队","116.641","23.4195","广东","汕头市","金平区"
"1487","惠州学院环保协会","114.404","23.0951","广东","惠州市","惠东县"
"1485","江门五邑大学环保协会","113.091","22.6004","广东","江门市","蓬江区"
"1472","东莞理工大学绿色环保协会","113.883","22.9055","广东","东莞市","莞城区"
"228","绿色珠江","113.764","23.0079","广东","东莞市","东城区"
"1737","东莞市环保志愿服务总队","113.664","23.0994","广东","东莞市","市辖镇"
"1523","广东石油化工学院青年志愿者协会","110.93","21.6817","广东","茂名市","茂南区"
"1488","清远职业技术学院绿色环保协会","113.087","23.7252","广东","清远市","清城区"
"1571","电子科技大学中山学院青年志愿者协会","113.399","22.5362","广东","中山市","石岐区"
"1494","广东海洋大学环保协会","110.308","21.1567","广东","湛江市","赤坎区"
"1525","广东海洋大学环境保护协会","110.308","21.157","广东","湛江市","麻章区"
"1805","雷州半岛可持续发展促进会","110.087","20.9146","广东","湛江市","雷州市"
"1736","湛江爱鸟会","110.422","21.2356","广东","湛江市","其他区县"
"1598","佛山科学技术学院绿色先锋环保协会","113.104","23.0288","广东","佛山市","禅城区"
"1498","广东韶关大学绿色社区研究所","113.681","24.7793","广东","韶关市","浈江区"
"1489","肇庆学院环保协会","112.501","23.1125","广东","肇庆市","四会市"
"1499","揭阳职业技术学院绿色环保协会","116.322","23.4827","广东","揭阳市","普宁市"
"1486","嘉应学院同心环保协会","116.128","24.3044","广东","梅州市","梅县"
"167","动植物保护国际","108.341","22.822","广西","南宁市","青秀区"
"229","广西绿盟","108.339","22.8276","广西","南宁市","兴宁区"
"515","广西职业技术学院绿色新声环保协会","108.24","22.5848","广西","南宁市","江南区"
"493","广财绿色先锋环保协会","108.307","22.8412","广西","南宁市","西乡塘区"
"74","广西野花环境工作室","108.347","22.7652","广西","南宁市","良庆区"
"513","广西邕江大学绿协","108.458","22.7563","广西","南宁市","邕宁区"
"1126","桂林市高校环保联盟","110.296","25.2798","广西","桂林市","象山区"
"504","广西师范大学环境保护协会","110.33","25.2728","广西","桂林市","七星区"
"1347","柳州观鸟会","109.45","24.3467","广西","柳州市","城中区"
"520","柳州师范高等专科学校环协","109.392","24.4762","广西","柳州市","柳北区"
"523","广西钦州学院“绿色使者”环保协会","108.622","21.9736","广西","钦州市","钦南区"
"1725","北海红树林关爱与发展研究会","109.102","21.4688","广西","北海市","海城区"
"1315","右江民族医学院“心之绿”环境保护协会","106.621","23.896","广西","百色市","右江区"
"522","梧州师范高等专科学校环境与经济学系绿色文化社","111.55","24.4172","广西","贺州市","八步区"
"503","河池学院绿原子协会","108.667","24.5041","广西","河池市","宜州市"
"1381","海南观鸟会","110.334","20.0347","海南","海口市","龙华区"
"776","海南政法职业学院绿色动力","110.385","19.9887","海南","海口市","琼山区"
"97","海南绿脚印","110.331","20.0666","海南","海口市","美兰区"
"774","海南医学院绿色家园环保协会","110.34","19.9876","海南","海口市","其他区县"
"1416","蓝丝带三亚学院志愿者服务社","109.563","18.3314","海南","三亚市","吉阳区"
"131","蓝丝带协会","109.51","18.2594","海南","三亚市","天涯区"
"781","海南琼州学院生命与自然协会","109.54","18.3165","海南","三亚市","崖州区"
"772","海南大学绿苑环保协会","109.499","19.514","海南","儋州市","那大镇"
"50","两江志愿服务发展中心","106.549","29.5661","重庆","重庆市","渝中区"
"1826","重庆大气污染防治公众参与志愿者团队","106.448","29.5776","重庆","重庆市","沙坪坝区"
"423","解放军后勤工程学院绿之韵环保爱心协会","106.5","29.5404","重庆","重庆市","九龙坡区"
"492","重庆交通学院绿色联盟","106.579","29.4939","重庆","重庆市","南岸区"
"201","西南大学爱村·环联","106.435","29.8277","重庆","重庆市","北碚区"
"452","西南政法大学绿源环保协会","106.601","29.6664","重庆","重庆市","渝北区"
"466","重庆三峡职业学院绿色环保协会","108.39","30.8013","重庆","重庆市","万州区"
"422","长江师范学院环保协会","106.455","29.5411","重庆","重庆市","涪陵区"
"1613","生态农业种植合作协会","105.726","29.7102","重庆","重庆市","大足县"
"453","重庆巴渝职业技术学院巴渝环卫小组","106.335","29.6261","重庆","重庆市","高新区"
"312","都江堰市自然保护协会","103.666","31.0195","四川","成都市","都江堰市"
"53","益游网","104.091","30.6779","四川","成都市","青羊区"
"1828","成都市蒲公英环境保护发展中心","104.073","30.6591","四川","成都市","锦江区"
"1272","四川西部自然保护基金会","104.025","30.6955","四川","成都市","金牛区"
"39","集思青年公益发展中心","104.092","30.6433","四川","成都市","武侯区"
"303","四川成都野趣自然教育工作室 ","104.109","30.6657","四川","成都市","成华区"
"782","成都大学环境与发展协会","104.195","30.6555","四川","成都市","龙泉驿区"
"151","西南石油大学绿舟协会","104.19","30.8317","四川","成都市","新都区"
"308","康华社区 ","104.086","30.6267","四川","成都市","温江区"
"861","西南民族大学绿色法律行动组","104.056","30.6452","四川","成都市","双流县"
"784","成都纺织高等专科学校红蜻蜓环保志愿者协会","103.964","30.7677","四川","成都市","郫县"
"54","成都根与芽","104.056","30.6374","四川","成都市","高新区"
"286","共营绿色环保公益组织","104.397","31.0986","四川","德阳市","旌阳区"
"864","中国民用航空飞行学院环保协会","104.314","30.9564","四川","德阳市","广汉市"
"188","西南科技大学承诺自然环保协会","104.702","31.5406","四川","绵阳市","涪城区"
"1431","绵阳市爱鸟协会","104.783","31.5005","四川","绵阳市","游仙区"
"789","川北医学院环保协会","106.135","30.7852","四川","南充市","高坪区"
"1432","泸州观鸟会","105.441","28.8848","四川","泸州市","江阳区"
"1322","护球之交","105.387","29.1564","四川","泸州市","泸县"
"814","四川理工学院大学生环保协会","104.773","29.3437","四川","自贡市","自流井区"
"156","绿动乐山","103.774","29.5724","四川","乐山市","市中区"
"806","内江师范学院绿色生命协会","105.057","29.5948","四川","内江市","东兴区"
"790","达县师范高等专科学校青年志愿者环保服务站","107.491","31.2173","四川","达州市","通川区"
"810","四川大学锦江学院环境保护协会","103.88","30.2211","四川","眉山市","彭山县"
"815","四川农业大学风景园林一族","103.007","29.9845","四川","雅安市","雨城区"
"1780","汶川县熊猫绿色乡村发展协会","103.596","31.483","四川","阿坝州","汶川县"
"159","茂县九顶山野生动植物之友协会","103.86","31.6868","四川","阿坝州","茂县"
"1791","阿坝县玛嵘峒格生态文化旅游专业合作社","101.711","32.9095","四川","阿坝州","阿坝县"
"302","西昌生态所 ","102.344","27.851","四川","凉山州","西昌市"
"230","贵州省贵阳市生态文明基金会","106.707","26.5717","贵州","贵阳市","南明区"
"123","贵州绿家园","106.724","26.6136","贵州","贵阳市","云岩区"
"202","贵州省大学生环保志愿者联合会","106.633","26.6547","贵州","贵阳市","花溪区"
"819","贵州师范大学求是学院晨曦社","106.631","26.7188","贵州","贵阳市","白云区"
"91","贵州人","106.7","26.5238","贵州","贵阳市","小河区"
"335","贵阳公众环境教育中心 ","106.651","26.6283","贵州","贵阳市","其他区县"
"816","六盘水师专青年志愿者协会","104.827","26.5824","贵州","六盘水市","钟山区"
"802","贵州航天职业技术学院环保协会","106.945","27.7024","贵州","遵义市","红花岗区"
"509","安顺学院环境保护协会","105.909","26.2501","贵州","安顺市","西秀区"
"1275","织金青年志愿者","105.775","26.6764","贵州","毕节地区","织金县"
"925","铜仁师范高等专科学校绿色之友环保协会","109.204","27.7451","贵州","铜仁地区","铜仁市"
"825","凯里学院资环协会","107.899","26.5327","贵州","黔东南州","凯里市"
"1291","农民摄影生态文化保护中心","108.912","25.7592","贵州","黔东南州","从江县"
"826","黔南民族师范学院花卉苗木协会","107.527","26.2953","贵州","黔南州","都匀市"
"121","思力中心","102.759","25.0868","云南","昆明市","盘龙区"
"78","绿色昆明","102.721","25.084","云南","昆明市","五华区"
"1180","云南中医学院茵陈环境保护协会","100.799","22.0096","云南","昆明市","官渡区"
"142","昆明野地环境发展研究所","102.681","25.0167","云南","昆明市","西山区"
"1173","云南师大旅游与地理科学学院同创社","102.861","24.8702","云南","昆明市","呈贡县"
"1183","勐腊县民族中学青青环保社","101.576","21.4893","云南","昆明市","其他区县"
"1190","玉溪农业职业技术学院青年志愿者协会","102.506","24.2603","云南","玉溪市","红塔区"
"301","高黎贡山之友协会 ","98.7748","24.8322","云南","保山市","隆阳区"
"144","一株树志愿者联盟","100.155","26.8542","云南","丽江市","玉龙纳西族自治县"
"143","昭通黑颈鹤保护志愿者协会","103.719","27.3328","云南","昭通市","昭阳区"
"1188","楚雄师范学院盈清社","101.556","25.0322","云南","楚雄州","楚雄市"
"1790","大理白族自治州生物多样性保护与研究中心","100.235","25.5989","云南","大理州","大理市"
"231","香格里拉民间自然保护协会","99.7099","27.821","云南","迪庆州","香格里拉县"
"1334","西藏生物影像调查","91.1529","29.6826","西藏","拉萨市","城关区"
"40","西安未央环保协会","108.954","34.3124","陕西","西安市","未央区"
"233","西安绿世界环境文化艺术发展研究所","108.923","34.2655","陕西","西安市","莲湖区"
"90","陕西青年与环境互助网络","108.943","34.2565","陕西","西安市","碑林区"
"234","陕西省妈妈环保志愿者协会","108.971","34.2309","陕西","西安市","雁塔区"
"298","绿色原点 ","108.908","34.1632","陕西","西安市","长安区"
"1262","西北农林科技大学义务环保协会","108.079","34.292","陕西","咸阳市","杨陵区"
"714","陕西科技大学绿色协会","108.697","34.3386","陕西","咸阳市","渭城区"
"1313","安康学院绿巨人社团","108.991","32.7024","陕西","安康市","汉滨区"
"314","潼关县绿色金城发展与服务中心","110.256","34.5528","陕西","渭南市","潼关县"
"83","绿哈达","103.828","36.0637","甘肃","兰州市","城关区"
"82","绿驼铃","103.794","36.0629","甘肃","兰州市","七里河区"
"344","甘肃政法学院大学生环保节能协会","103.737","36.1096","甘肃","兰州市","安宁区"
"179","兰州大学绿队","103.883","36.0414","甘肃","兰州市","榆中县"
"382","兰州外国语学院青年志愿者协会","103.833","36.0569","甘肃","兰州市","其他区县"
"85","陇右环境保育","105.705","34.5751","甘肃","天水市","秦州区"
"371","甘肃林业职业技术学院环保志愿者协会","105.918","34.4888","甘肃","天水市","麦积区"
"122","拯救民勤","103.216","38.5863","甘肃","武威市","民勤县"
"373","河西学院大学生绿色环保协会","100.448","38.9573","甘肃","张掖市","甘州区"
"383","庆阳师范高等专科学校青年志愿者协会","107.657","35.7309","甘肃","庆阳市","西峰区"
"319","甘肃省陇南市绿源环保志愿者协会","104.933","33.3981","甘肃","陇南市","武都区"
"63","陇南师专绿色行动环保志愿者组织","105.749","33.7608","甘肃","陇南市","成县"
"1832"," 临夏州生态环境保护协会","103.214","35.6076","甘肃","临夏州","临夏市"
"1270","Gangri Neichog 雪境生态宣传教育与研究中心","101.761","36.6166","青海","西宁市","城中区"
"1197","青海民族学院环境保护协会","101.836","36.5958","青海","西宁市","城东区"
"1795","青海源碳环境保护与气候变化咨询服务有限公司","101.774","36.633","青海","西宁市","城西区"
"1834","青海湖生态文化保护与普氏原羚公众交流基地","101.008","36.9032","青海","海北州","海晏县"
"272","年保玉则生态环境保护协会","101.114","33.4025","青海","果洛州","久治县"
"1833","乔美环保协会","96.4875","32.2094","青海","玉树州","囊谦县"
"281","宁夏扶贫与环境改造中心","106.289","38.4824","宁夏","银川市","兴庆区"
"489","宁夏大学绿之源协会","106.144","38.5033","宁夏","银川市","西夏区"
"1787","李维东自然生态保护工作室","87.5723","43.8704","新疆","乌鲁木齐市","天山区"
"913","新疆农业大学绿色家园青年环保志愿队","87.573","43.8185","新疆","乌鲁木齐市","沙依巴克区"
"320","新疆自然保育","87.6035","43.8408","新疆","乌鲁木齐市","新市区"
"1835","荒野公学","87.6499","43.8385","新疆","乌鲁木齐市","水磨沟区"
"902","新疆轻工职业技术学院环境保护协会","87.6372","43.9266","新疆","乌鲁木齐市","米东区"
"852","新疆大学绿诺北区","87.5933","43.8281","新疆","乌鲁木齐市","乌鲁木齐县"
"1379","喀什观鸟会","75.9957","39.4773","新疆","喀什地区","喀什市"
"910","和田师专环保队","79.9159","37.1172","新疆","和田地区","和田市"
"912","新疆昌吉学院初等教育学院21世纪的大学生","87.2628","44.0205","新疆","昌吉回族自治州","昌吉市"
"921","伊犁师范学院保护伊犁河志愿者协会","81.3111","43.9423","新疆","伊犁哈萨克自治州","伊宁市"
"245","台湾环境资讯协会","121.55","25.0757","台湾","台湾","台北市"
"244","荒野保护协会桃园分会","121.233","24.969","台湾","台湾","桃园县"
"163","亚洲动物基金会","114.162","22.2903","香港","香港特别行政区","中西区"
"165","香港地球之友","114.203","22.2901","香港","香港特别行政区","东区"
"51","社区伙伴","114.184","22.3099","香港","香港特别行政区","九龙城区"
"243","嘉道理农场暨植物园","114.116","22.4351","香港","香港特别行政区","大埔区"
